{"type":"FeatureCollection","name":"Ginza major roads","bbox":[139.759,35.6645,139.772,35.6755],"features":[{"type":"Feature","properties":{"osm_type":"way","osm_id":4848875,"class":"motorway","name":"首都高速都心環状線","bridge":"no","tunnel":"no","layer":"0","part":0},"geometry":{"type":"LineString","coordinates":[[139.765016,35.6645],[139.765605,35.665166],[139.765819,35.665383],[139.767311,35.666577]]}},{"type":"Feature","properties":{"osm_type":"way","osm_id":4848881,"class":"primary","name":"昭和通り","bridge":"no","tunnel":"no","layer":"0","part":0},"geometry":{"type":"LineString","coordinates":[[139.760462,35.666778],[139.760611,35.666725]]}},{"type":"Feature","properties":{"osm_type":"way","osm_id":4848883,"class":"motorway","name":"首都高速都心環状線(第2通行帯)","bridge":"no","tunnel":"no","layer":"0","part":0},"geometry":{"type":"LineString","coordinates":[[139.77148,35.670781],[139.77127,35.670595]]}},{"type":"Feature","properties":{"osm_type":"way","osm_id":4848922,"class":"motorway_link","name":"銀座入口","bridge":"no","tunnel":"no","layer":"0","part":0},"geometry":{"type":"LineString","coordinates":[[139.767957,35.66695],[139.767913,35.666928],[139.7678,35.666758],[139.767541,35.66651],[139.767066,35.666151]]}},{"type":"Feature","properties":{"osm_type":"way","osm_id":4848923,"class":"motorway_link","name":"","bridge":"no","tunnel":"no","layer":"0","part":0},"geometry":{"type":"LineString","coordinates":[[139.767481,35.666878],[139.767475,35.667166],[139.767507,35.667439],[139.767578,35.667644],[139.76768,35.667801]]}},{"type":"Feature","properties":{"osm_type":"way","osm_id":4848924,"class":"primary","name":"昭和通り","bridge":"no","tunnel":"no","layer":"-1","part":0},"geometry":{"type":"LineString","coordinates":[[139.765777,35.668459],[139.764824,35.667688]]}},{"type":"Feature","properties":{"osm_type":"way","osm_id":4848926,"class":"primary","name":"昭和通り","bridge":"no","tunnel":"yes","layer":"-1","part":0},"geometry":{"type":"LineString","coordinates":[[139.765725,35.668503],[139.766786,35.6694],[139.767279,35.66989],[139.769124,35.671943]]}},{"type":"Feature","properties":{"osm_type":"way","osm_id":4848928,"class":"primary","name":"昭和通り","bridge":"no","tunnel":"no","layer":"0","part":0},"geometry":{"type":"LineString","coordinates":[[139.76325,35.666805],[139.76408,35.667272],[139.766018,35.668827],[139.766817,35.669505],[139.76961,35.67259],[139.769904,35.672901],[139.770082,35.673043]]}},{"type":"Feature","properties":{"osm_type":"way","osm_id":4848930,"class":"tertiary","name":"御門通り","bridge":"no","tunnel":"no","layer":"0","part":0},"geometry":{"type":"LineString","coordinates":[[139.761189,35.667628],[139.75978,35.668092]]}},{"type":"Feature","properties":{"osm_type":"way","osm_id":4848932,"class":"trunk","name":"第一京浜","bridge":"no","tunnel":"no","layer":"0","part":0},"geometry":{"type":"LineString","coordinates":[[139.759,35.66506],[139.759265,35.665429]]}},{"type":"Feature","properties":{"osm_type":"way","osm_id":4848933,"class":"motorway","name":"首都高速都心環状線","bridge":"no","tunnel":"no","layer":"0","part":0},"geometry":{"type":"LineString","coordinates":[[139.767311,35.666577],[139.767395,35.666681],[139.767466,35.666828],[139.767556,35.667327],[139.767667,35.667609],[139.767841,35.667834],[139.768215,35.668177]]}},{"type":"Feature","properties":{"osm_type":"way","osm_id":4848934,"class":"motorway","name":"首都高速都心環状線","bridge":"no","tunnel":"no","layer":"0","part":0},"geometry":{"type":"LineString","coordinates":[[139.76739,35.666535],[139.765885,35.665344],[139.765131,35.6645]]}},{"type":"Feature","properties":{"osm_type":"way","osm_id":4848935,"class":"motorway_link","name":"首都高速都心環状線(第1通行帯)","bridge":"no","tunnel":"no","layer":"0","part":0},"geometry":{"type":"LineString","coordinates":[[139.77148,35.670781],[139.7713,35.670572]]}},{"type":"Feature","properties":{"osm_type":"way","osm_id":4848936,"class":"motorway_link","name":"銀座入口","bridge":"no","tunnel":"no","layer":"0","part":0},"geometry":{"type":"LineString","coordinates":[[139.76974,35.669665],[139.769877,35.6697],[139.769987,35.669753],[139.770633,35.670268]]}},{"type":"Feature","properties":{"osm_type":"way","osm_id":4848937,"class":"motorway","name":"首都高速都心環状線","bridge":"no","tunnel":"no","layer":"0","part":0},"geometry":{"type":"LineString","coordinates":[[139.771715,35.671264],[139.771913,35.671588]]}},{"type":"Feature","properties":{"osm_type":"way","osm_id":4848939,"class":"motorway","name":"首都高速都心環状線","bridge":"no","tunnel":"no","layer":"0","part":0},"geometry":{"type":"LineString","coordinates":[[139.772,35.671513],[139.771926,35.671376],[139.771596,35.670913]]}},{"type":"Feature","properties":{"osm_type":"way","osm_id":4848941,"class":"motorway_link","name":"新富町出口","bridge":"no","tunnel":"yes","layer":"-1","part":0},"geometry":{"type":"LineString","coordinates":[[139.770895,35.670369],[139.771223,35.670628]]}},{"type":"Feature","properties":{"osm_type":"way","osm_id":4849057,"class":"motorway_link","name":"","bridge":"yes","tunnel":"no","layer":"2","part":0},"geometry":{"type":"LineString","coordinates":[[139.771452,35.674152],[139.770887,35.674329]]}},{"type":"Feature","properties":{"osm_type":"way","osm_id":19779850,"class":"primary","name":"晴海通り","bridge":"no","tunnel":"no","layer":"0","part":0},"geometry":{"type":"LineString","coordinates":[[139.760701,35.674243],[139.760708,35.674238]]}},{"type":"Feature","properties":{"osm_type":"way","osm_id":22730601,"class":"trunk","name":"日比谷通り","bridge":"no","tunnel":"no","layer":"0","part":0},"geometry":{"type":"LineString","coordinates":[[139.759538,35.675123],[139.759804,35.675442],[139.759833,35.6755]]}},{"type":"Feature","properties":{"osm_type":"way","osm_id":23456384,"class":"secondary","name":"新橋日の出ふ頭線","bridge":"no","tunnel":"no","layer":"0","part":0},"geometry":{"type":"LineString","coordinates":[[139.759397,35.665613],[139.759635,35.665562]]}},{"type":"Feature","properties":{"osm_type":"way","osm_id":23489017,"class":"primary","name":"昭和通り","bridge":"no","tunnel":"no","layer":"0","part":0},"geometry":{"type":"LineString","coordinates":[[139.770741,35.673847],[139.771694,35.675342]]}},{"type":"Feature","properties":{"osm_type":"way","osm_id":24487306,"class":"secondary","name":"外堀通り","bridge":"no","tunnel":"no","layer":"0","part":0},"geometry":{"type":"LineString","coordinates":[[139.760342,35.666695],[139.759326,35.667061]]}},{"type":"Feature","properties":{"osm_type":"way","osm_id":25824166,"class":"secondary","name":"汐留大通り","bridge":"no","tunnel":"no","layer":"0","part":0},"geometry":{"type":"LineString","coordinates":[[139.761309,35.6645],[139.761716,35.664949],[139.761862,35.665136],[139.76223,35.665709],[139.762382,35.665827],[139.762685,35.665953]]}},{"type":"Feature","properties":{"osm_type":"way","osm_id":33847142,"class":"secondary","name":"大名小路","bridge":"no","tunnel":"no","layer":"0","part":0},"geometry":{"type":"LineString","coordinates":[[139.762317,35.674588],[139.762131,35.674019]]}},{"type":"Feature","properties":{"osm_type":"way","osm_id":33847146,"class":"secondary","name":"汐留大通り","bridge":"no","tunnel":"no","layer":"0","part":0},"geometry":{"type":"LineString","coordinates":[[139.762812,35.665751],[139.762638,35.665797],[139.762577,35.665796],[139.762516,35.66578],[139.762434,35.665721],[139.76196,35.664976],[139.761536,35.6645]]}},{"type":"Feature","properties":{"osm_type":"way","osm_id":45171692,"class":"primary","name":"日比谷地下道","bridge":"no","tunnel":"yes","layer":"-1","part":0},"geometry":{"type":"LineString","coordinates":[[139.762023,35.673237],[139.761315,35.673736],[139.760718,35.674116],[139.759153,35.675189],[139.759,35.675258]]}},{"type":"Feature","properties":{"osm_type":"way","osm_id":45242995,"class":"secondary","name":"新橋日の出ふ頭線","bridge":"no","tunnel":"no","layer":"0","part":0},"geometry":{"type":"LineString","coordinates":[[139.759635,35.665562],[139.761379,35.664578],[139.761432,35.664547],[139.76147,35.6645]]}},{"type":"Feature","properties":{"osm_type":"way","osm_id":46151743,"class":"motorway_link","name":"","bridge":"no","tunnel":"no","layer":"0","part":0},"geometry":{"type":"LineString","coordinates":[[139.772,35.671512],[139.771997,35.671504]]}},{"type":"Feature","properties":{"osm_type":"way","osm_id":59263148,"class":"secondary","name":"日比谷通り","bridge":"no","tunnel":"no","layer":"0","part":0},"geometry":{"type":"LineString","coordinates":[[139.759576,35.674896],[139.759,35.674322]]}},{"type":"Feature","properties":{"osm_type":"way","osm_id":59266960,"class":"trunk","name":"日比谷通り","bridge":"no","tunnel":"no","layer":"0","part":0},"geometry":{"type":"LineString","coordinates":[[139.760009,35.6755],[139.759877,35.675233],[139.759674,35.674992]]}},{"type":"Feature","properties":{"osm_type":"way","osm_id":69963031,"class":"primary_link","name":"昭和通り","bridge":"no","tunnel":"no","layer":"0","part":0},"geometry":{"type":"LineString","coordinates":[[139.764421,35.667547],[139.764767,35.667735]]}},{"type":"Feature","properties":{"osm_type":"way","osm_id":69963032,"class":"tertiary","name":"銀中通り","bridge":"no","tunnel":"no","layer":"0","part":0},"geometry":{"type":"LineString","coordinates":[[139.76474,35.665693],[139.764806,35.665711],[139.765315,35.666124],[139.767286,35.667628]]}},{"type":"Feature","properties":{"osm_type":"way","osm_id":69963036,"class":"primary_link","name":"","bridge":"no","tunnel":"no","layer":"0","part":0},"geometry":{"type":"LineString","coordinates":[[139.763463,35.666735],[139.763287,35.666581],[139.763175,35.666529],[139.763069,35.666451],[139.763012,35.666343],[139.762997,35.666261],[139.763009,35.66607]]}},{"type":"Feature","properties":{"osm_type":"way","osm_id":69963039,"class":"primary","name":"昭和通り","bridge":"no","tunnel":"no","layer":"0","part":0},"geometry":{"type":"LineString","coordinates":[[139.770187,35.672949],[139.769814,35.672466],[139.767182,35.66957]]}},{"type":"Feature","properties":{"osm_type":"way","osm_id":69963044,"class":"tertiary","name":"中央市場通り","bridge":"no","tunnel":"no","layer":"0","part":0},"geometry":{"type":"LineString","coordinates":[[139.764166,35.667111],[139.764307,35.667053],[139.765987,35.665672]]}},{"type":"Feature","properties":{"osm_type":"way","osm_id":88690557,"class":"secondary","name":"外濠環状線","bridge":"no","tunnel":"no","layer":"2","part":0},"geometry":{"type":"LineString","coordinates":[[139.759172,35.665976],[139.759068,35.665844],[139.759067,35.665799],[139.759397,35.665613]]}},{"type":"Feature","properties":{"osm_type":"way","osm_id":92223189,"class":"primary","name":"昭和通り","bridge":"no","tunnel":"yes","layer":"-1","part":0},"geometry":{"type":"LineString","coordinates":[[139.771406,35.674739],[139.771879,35.6755]]}},{"type":"Feature","properties":{"osm_type":"way","osm_id":92223190,"class":"tertiary","name":"","bridge":"no","tunnel":"no","layer":"0","part":0},"geometry":{"type":"LineString","coordinates":[[139.769814,35.672466],[139.770228,35.672175],[139.771201,35.671558],[139.771666,35.671359]]}},{"type":"Feature","properties":{"osm_type":"way","osm_id":92223192,"class":"primary","name":"昭和通り","bridge":"no","tunnel":"no","layer":"-1","part":0},"geometry":{"type":"LineString","coordinates":[[139.769124,35.671943],[139.769802,35.67269]]}},{"type":"Feature","properties":{"osm_type":"way","osm_id":92223199,"class":"primary","name":"昭和通り","bridge":"no","tunnel":"no","layer":"0","part":0},"geometry":{"type":"LineString","coordinates":[[139.772,35.675382],[139.771972,35.675338]]}},{"type":"Feature","properties":{"osm_type":"way","osm_id":92223204,"class":"primary","name":"昭和通り","bridge":"no","tunnel":"no","layer":"0","part":0},"geometry":{"type":"LineString","coordinates":[[139.77148,35.674709],[139.770966,35.673901]]}},{"type":"Feature","properties":{"osm_type":"way","osm_id":92223208,"class":"primary","name":"昭和通り","bridge":"no","tunnel":"yes","layer":"-1","part":0},"geometry":{"type":"LineString","coordinates":[[139.769193,35.6719],[139.767343,35.669847],[139.766815,35.669338],[139.765777,35.668459]]}},{"type":"Feature","properties":{"osm_type":"way","osm_id":92223210,"class":"primary","name":"昭和通り","bridge":"no","tunnel":"yes","layer":"-1","part":0},"geometry":{"type":"LineString","coordinates":[[139.771967,35.6755],[139.77148,35.674709]]}},{"type":"Feature","properties":{"osm_type":"way","osm_id":95274352,"class":"tertiary","name":"","bridge":"no","tunnel":"no","layer":"0","part":0},"geometry":{"type":"LineString","coordinates":[[139.76876,35.671636],[139.768955,35.671513]]}},{"type":"Feature","properties":{"osm_type":"way","osm_id":95274384,"class":"tertiary","name":"","bridge":"no","tunnel":"no","layer":"0","part":0},"geometry":{"type":"LineString","coordinates":[[139.772,35.66938],[139.771035,35.670127],[139.770965,35.670164]]}},{"type":"Feature","properties":{"osm_type":"way","osm_id":97685613,"class":"tertiary","name":"演舞場通り","bridge":"no","tunnel":"no","layer":"0","part":0},"geometry":{"type":"LineString","coordinates":[[139.765194,35.667881],[139.766708,35.666603]]}},{"type":"Feature","properties":{"osm_type":"way","osm_id":97685675,"class":"secondary_link","name":"","bridge":"yes","tunnel":"no","layer":"1","part":0},"geometry":{"type":"LineString","coordinates":[[139.77194,35.671253],[139.772,35.671226]]}},{"type":"Feature","properties":{"osm_type":"way","osm_id":97685696,"class":"secondary","name":"佃大橋通り","bridge":"no","tunnel":"no","layer":"0","part":0},"geometry":{"type":"LineString","coordinates":[[139.772,35.670952],[139.771971,35.670971]]}},{"type":"Feature","properties":{"osm_type":"way","osm_id":97685724,"class":"tertiary","name":"","bridge":"yes","tunnel":"no","layer":"1","part":0},"geometry":{"type":"LineString","coordinates":[[139.771666,35.671359],[139.77194,35.671253]]}},{"type":"Feature","properties":{"osm_type":"way","osm_id":139718224,"class":"secondary","name":"外濠環状線","bridge":"no","tunnel":"no","layer":"0","part":0},"geometry":{"type":"LineString","coordinates":[[139.759138,35.66669],[139.759673,35.666526],[139.759715,35.666526],[139.759981,35.666834]]}},{"type":"Feature","properties":{"osm_type":"way","osm_id":157191451,"class":"trunk","name":"晴海通り","bridge":"no","tunnel":"no","layer":"0","part":0},"geometry":{"type":"LineString","coordinates":[[139.759315,35.675109],[139.759,35.675318]]}},{"type":"Feature","properties":{"osm_type":"way","osm_id":172598552,"class":"tertiary","name":"補助第316号線","bridge":"no","tunnel":"no","layer":"0","part":0},"geometry":{"type":"LineString","coordinates":[[139.768079,35.666811],[139.768849,35.666095],[139.769353,35.665599]]}},{"type":"Feature","properties":{"osm_type":"way","osm_id":172598637,"class":"primary","name":"晴海通り","bridge":"no","tunnel":"no","layer":"0","part":0},"geometry":{"type":"LineString","coordinates":[[139.770645,35.666609],[139.770864,35.666417],[139.772,35.665274]]}},{"type":"Feature","properties":{"osm_type":"way","osm_id":172598638,"class":"primary","name":"晴海通り;万年橋","bridge":"yes","tunnel":"no","layer":"1","part":0},"geometry":{"type":"LineString","coordinates":[[139.768409,35.668507],[139.768698,35.668248]]}},{"type":"Feature","properties":{"osm_type":"way","osm_id":172598639,"class":"primary","name":"晴海通り;万年橋","bridge":"yes","tunnel":"no","layer":"1","part":0},"geometry":{"type":"LineString","coordinates":[[139.768606,35.668177],[139.76831,35.668431]]}},{"type":"Feature","properties":{"osm_type":"way","osm_id":172598640,"class":"primary","name":"晴海通り","bridge":"no","tunnel":"no","layer":"0","part":0},"geometry":{"type":"LineString","coordinates":[[139.76831,35.668431],[139.76748,35.669171]]}},{"type":"Feature","properties":{"osm_type":"way","osm_id":172598644,"class":"tertiary","name":"","bridge":"yes","tunnel":"no","layer":"1","part":0},"geometry":{"type":"LineString","coordinates":[[139.766166,35.665407],[139.765909,35.665607]]}},{"type":"Feature","properties":{"osm_type":"way","osm_id":172598645,"class":"tertiary","name":"","bridge":"yes","tunnel":"no","layer":"1","part":0},"geometry":{"type":"LineString","coordinates":[[139.765987,35.665672],[139.766242,35.665467]]}},{"type":"Feature","properties":{"osm_type":"way","osm_id":172598646,"class":"tertiary","name":"","bridge":"yes","tunnel":"no","layer":"1","part":0},"geometry":{"type":"LineString","coordinates":[[139.770965,35.670164],[139.77064,35.670345]]}},{"type":"Feature","properties":{"osm_type":"way","osm_id":172598647,"class":"motorway_link","name":"","bridge":"no","tunnel":"no","layer":"0","part":0},"geometry":{"type":"LineString","coordinates":[[139.770868,35.670136],[139.770121,35.669622]]}},{"type":"Feature","properties":{"osm_type":"way","osm_id":172598648,"class":"tertiary","name":"中央市場通り","bridge":"no","tunnel":"no","layer":"0","part":0},"geometry":{"type":"LineString","coordinates":[[139.766242,35.665467],[139.76748,35.6645]]}},{"type":"Feature","properties":{"osm_type":"way","osm_id":172598650,"class":"tertiary","name":"中央市場通り","bridge":"no","tunnel":"no","layer":"0","part":0},"geometry":{"type":"LineString","coordinates":[[139.765909,35.665607],[139.765315,35.666124],[139.764221,35.666992],[139.764166,35.667111]]}},{"type":"Feature","properties":{"osm_type":"way","osm_id":172598653,"class":"tertiary","name":"","bridge":"no","tunnel":"no","layer":"0","part":0},"geometry":{"type":"LineString","coordinates":[[139.77064,35.670345],[139.770596,35.67037]]}},{"type":"Feature","properties":{"osm_type":"way","osm_id":172598654,"class":"motorway_link","name":"新富町出口","bridge":"no","tunnel":"yes","layer":"-2","part":0},"geometry":{"type":"LineString","coordinates":[[139.771622,35.671044],[139.771717,35.671108],[139.771849,35.67115],[139.771992,35.67116],[139.772,35.671159]]}},{"type":"Feature","properties":{"osm_type":"way","osm_id":178988161,"class":"tertiary","name":"鍛冶橋通り","bridge":"no","tunnel":"no","layer":"0","part":0},"geometry":{"type":"LineString","coordinates":[[139.771972,35.675338],[139.772,35.675326]]}},{"type":"Feature","properties":{"osm_type":"way","osm_id":178988162,"class":"tertiary","name":"鍛冶橋通り","bridge":"no","tunnel":"no","layer":"0","part":0},"geometry":{"type":"LineString","coordinates":[[139.772,35.675222],[139.77192,35.675254]]}},{"type":"Feature","properties":{"osm_type":"way","osm_id":196380141,"class":"trunk","name":"中央通り","bridge":"no","tunnel":"no","layer":"0","part":0},"geometry":{"type":"LineString","coordinates":[[139.761189,35.667628],[139.76219,35.668546],[139.763047,35.669387],[139.764968,35.671201]]}},{"type":"Feature","properties":{"osm_type":"way","osm_id":203179926,"class":"secondary","name":"外堀通り","bridge":"no","tunnel":"no","layer":"0","part":0},"geometry":{"type":"LineString","coordinates":[[139.759,35.66728],[139.759192,35.667214]]}},{"type":"Feature","properties":{"osm_type":"way","osm_id":203301443,"class":"motorway_link","name":"","bridge":"no","tunnel":"no","layer":"1","part":0},"geometry":{"type":"LineString","coordinates":[[139.769738,35.674315],[139.769696,35.674259]]}},{"type":"Feature","properties":{"osm_type":"way","osm_id":203301447,"class":"trunk_link","name":"日比谷通り","bridge":"no","tunnel":"no","layer":"0","part":0},"geometry":{"type":"LineString","coordinates":[[139.759198,35.6755],[139.759556,35.675375],[139.75969,35.675365],[139.759804,35.675442]]}},{"type":"Feature","properties":{"osm_type":"way","osm_id":203572466,"class":"secondary","name":"外濠環状線","bridge":"no","tunnel":"no","layer":"0","part":0},"geometry":{"type":"LineString","coordinates":[[139.759138,35.66669],[139.759,35.666726]]}},{"type":"Feature","properties":{"osm_type":"way","osm_id":203572499,"class":"primary_link","name":"日比谷地下道","bridge":"no","tunnel":"no","layer":"0","part":0},"geometry":{"type":"LineString","coordinates":[[139.762822,35.672729],[139.762023,35.673237]]}},{"type":"Feature","properties":{"osm_type":"way","osm_id":205411830,"class":"motorway","name":"首都高速都心環状線","bridge":"no","tunnel":"no","layer":"0","part":0},"geometry":{"type":"LineString","coordinates":[[139.770054,35.669677],[139.770727,35.670216]]}},{"type":"Feature","properties":{"osm_type":"way","osm_id":205411831,"class":"motorway","name":"首都高速都心環状線","bridge":"no","tunnel":"yes","layer":"-1","part":0},"geometry":{"type":"LineString","coordinates":[[139.768215,35.668177],[139.769,35.668822]]}},{"type":"Feature","properties":{"osm_type":"way","osm_id":205411832,"class":"motorway","name":"首都高速都心環状線","bridge":"no","tunnel":"yes","layer":"-1","part":0},"geometry":{"type":"LineString","coordinates":[[139.769608,35.669312],[139.770054,35.669677]]}},{"type":"Feature","properties":{"osm_type":"way","osm_id":205411833,"class":"motorway","name":"首都高速都心環状線","bridge":"no","tunnel":"no","layer":"0","part":0},"geometry":{"type":"LineString","coordinates":[[139.769,35.668822],[139.769608,35.669312]]}},{"type":"Feature","properties":{"osm_type":"way","osm_id":205411834,"class":"motorway","name":"首都高速都心環状線","bridge":"no","tunnel":"no","layer":"0","part":0},"geometry":{"type":"LineString","coordinates":[[139.771172,35.670662],[139.771715,35.671264]]}},{"type":"Feature","properties":{"osm_type":"way","osm_id":205411835,"class":"motorway","name":"首都高速都心環状線","bridge":"no","tunnel":"yes","layer":"-1","part":0},"geometry":{"type":"LineString","coordinates":[[139.770727,35.670216],[139.771172,35.670662]]}},{"type":"Feature","properties":{"osm_type":"way","osm_id":205411836,"class":"motorway","name":"首都高速都心環状線","bridge":"no","tunnel":"no","layer":"0","part":0},"geometry":{"type":"LineString","coordinates":[[139.768284,35.668117],[139.767939,35.667803],[139.767778,35.667603],[139.767704,35.667433],[139.767576,35.666805],[139.767489,35.666644],[139.76739,35.666535]]}},{"type":"Feature","properties":{"osm_type":"way","osm_id":205411838,"class":"motorway","name":"首都高速都心環状線","bridge":"no","tunnel":"yes","layer":"-1","part":0},"geometry":{"type":"LineString","coordinates":[[139.770121,35.669622],[139.769684,35.669262]]}},{"type":"Feature","properties":{"osm_type":"way","osm_id":205411839,"class":"motorway","name":"首都高速都心環状線","bridge":"no","tunnel":"no","layer":"0","part":0},"geometry":{"type":"LineString","coordinates":[[139.770792,35.670177],[139.770121,35.669622]]}},{"type":"Feature","properties":{"osm_type":"way","osm_id":205411840,"class":"motorway_link","name":"","bridge":"no","tunnel":"yes","layer":"-1","part":0},"geometry":{"type":"LineString","coordinates":[[139.7713,35.670572],[139.770868,35.670136]]}},{"type":"Feature","properties":{"osm_type":"way","osm_id":205411841,"class":"motorway","name":"首都高速都心環状線","bridge":"no","tunnel":"no","layer":"0","part":0},"geometry":{"type":"LineString","coordinates":[[139.769684,35.669262],[139.769078,35.66877]]}},{"type":"Feature","properties":{"osm_type":"way","osm_id":205411842,"class":"motorway","name":"首都高速都心環状線","bridge":"no","tunnel":"yes","layer":"-1","part":0},"geometry":{"type":"LineString","coordinates":[[139.77127,35.670595],[139.770792,35.670177]]}},{"type":"Feature","properties":{"osm_type":"way","osm_id":205411843,"class":"motorway_link","name":"銀座出口","bridge":"no","tunnel":"yes","layer":"-1","part":0},"geometry":{"type":"LineString","coordinates":[[139.770187,35.669572],[139.769755,35.669209]]}},{"type":"Feature","properties":{"osm_type":"way","osm_id":205411844,"class":"motorway_link","name":"銀座入口","bridge":"no","tunnel":"yes","layer":"-1","part":0},"geometry":{"type":"LineString","coordinates":[[139.770633,35.670268],[139.771116,35.670701]]}},{"type":"Feature","properties":{"osm_type":"way","osm_id":205411845,"class":"motorway","name":"首都高速都心環状線","bridge":"no","tunnel":"yes","layer":"-1","part":0},"geometry":{"type":"LineString","coordinates":[[139.769078,35.66877],[139.768284,35.668117]]}},{"type":"Feature","properties":{"osm_type":"way","osm_id":205411849,"class":"motorway_link","name":"新富町出口","bridge":"no","tunnel":"no","layer":"0","part":0},"geometry":{"type":"LineString","coordinates":[[139.771223,35.670628],[139.771622,35.671044]]}},{"type":"Feature","properties":{"osm_type":"way","osm_id":205411850,"class":"motorway_link","name":"銀座入口","bridge":"no","tunnel":"no","layer":"0","part":0},"geometry":{"type":"LineString","coordinates":[[139.771116,35.670701],[139.771715,35.671264]]}},{"type":"Feature","properties":{"osm_type":"way","osm_id":205411852,"class":"motorway_link","name":"銀座出口","bridge":"no","tunnel":"no","layer":"0","part":0},"geometry":{"type":"LineString","coordinates":[[139.770868,35.670136],[139.770187,35.669572]]}},{"type":"Feature","properties":{"osm_type":"way","osm_id":205411855,"class":"motorway_link","name":"銀座出口","bridge":"no","tunnel":"no","layer":"0","part":0},"geometry":{"type":"LineString","coordinates":[[139.769755,35.669209],[139.769419,35.668935],[139.769398,35.668903],[139.7694,35.668777]]}},{"type":"Feature","properties":{"osm_type":"way","osm_id":211774041,"class":"trunk","name":"中央通り","bridge":"no","tunnel":"no","layer":"0","part":0},"geometry":{"type":"LineString","coordinates":[[139.760611,35.666725],[139.760532,35.666626]]}},{"type":"Feature","properties":{"osm_type":"way","osm_id":215959965,"class":"primary","name":"新大橋通り","bridge":"no","tunnel":"no","layer":"0","part":0},"geometry":{"type":"LineString","coordinates":[[139.770645,35.666609],[139.771689,35.667417]]}},{"type":"Feature","properties":{"osm_type":"way","osm_id":229878534,"class":"tertiary","name":"銀座桜通り","bridge":"no","tunnel":"no","layer":"0","part":0},"geometry":{"type":"LineString","coordinates":[[139.77098,35.67378],[139.770898,35.6738]]}},{"type":"Feature","properties":{"osm_type":"way","osm_id":240595359,"class":"tertiary","name":"","bridge":"no","tunnel":"no","layer":"0","part":0},"geometry":{"type":"LineString","coordinates":[[139.759,35.66945],[139.759109,35.669411],[139.759233,35.669396],[139.759637,35.669096]]}},{"type":"Feature","properties":{"osm_type":"way","osm_id":242897861,"class":"primary","name":"海岸通り　(Kaigan-dori)","bridge":"no","tunnel":"no","layer":"0","part":0},"geometry":{"type":"LineString","coordinates":[[139.762463,35.666473],[139.762517,35.666619]]}},{"type":"Feature","properties":{"osm_type":"way","osm_id":242897862,"class":"primary","name":"海岸通り","bridge":"no","tunnel":"no","layer":"0","part":0},"geometry":{"type":"LineString","coordinates":[[139.762812,35.665751],[139.762464,35.666365]]}},{"type":"Feature","properties":{"osm_type":"way","osm_id":253812421,"class":"trunk","name":"第一京浜","bridge":"no","tunnel":"no","layer":"0","part":0},"geometry":{"type":"LineString","coordinates":[[139.759635,35.665562],[139.759539,35.665449]]}},{"type":"Feature","properties":{"osm_type":"way","osm_id":253812422,"class":"trunk","name":"中央通り","bridge":"no","tunnel":"no","layer":"0","part":0},"geometry":{"type":"LineString","coordinates":[[139.760342,35.666695],[139.760462,35.666778]]}},{"type":"Feature","properties":{"osm_type":"way","osm_id":253812423,"class":"trunk","name":"第一京浜","bridge":"no","tunnel":"no","layer":"0","part":0},"geometry":{"type":"LineString","coordinates":[[139.759737,35.66604],[139.760159,35.666535],[139.760342,35.666695]]}},{"type":"Feature","properties":{"osm_type":"way","osm_id":257233103,"class":"primary","name":"晴海通り","bridge":"no","tunnel":"no","layer":"0","part":0},"geometry":{"type":"LineString","coordinates":[[139.761835,35.673503],[139.762636,35.673003],[139.763252,35.672587]]}},{"type":"Feature","properties":{"osm_type":"way","osm_id":257233104,"class":"primary","name":"晴海通り","bridge":"no","tunnel":"no","layer":"0","part":0},"geometry":{"type":"LineString","coordinates":[[139.761738,35.673416],[139.76163,35.673488]]}},{"type":"Feature","properties":{"osm_type":"way","osm_id":257233105,"class":"secondary","name":"大名小路","bridge":"no","tunnel":"no","layer":"0","part":0},"geometry":{"type":"LineString","coordinates":[[139.762317,35.674588],[139.762358,35.674706]]}},{"type":"Feature","properties":{"osm_type":"way","osm_id":261065061,"class":"secondary","name":"外堀通り","bridge":"no","tunnel":"no","layer":"0","part":0},"geometry":{"type":"LineString","coordinates":[[139.759374,35.667154],[139.760462,35.666778]]}},{"type":"Feature","properties":{"osm_type":"way","osm_id":261065064,"class":"tertiary","name":"","bridge":"no","tunnel":"no","layer":"0","part":0},"geometry":{"type":"LineString","coordinates":[[139.759374,35.667154],[139.75957,35.667537]]}},{"type":"Feature","properties":{"osm_type":"way","osm_id":261065065,"class":"trunk","name":"第一京浜","bridge":"no","tunnel":"no","layer":"0","part":0},"geometry":{"type":"LineString","coordinates":[[139.759397,35.665613],[139.759737,35.66604]]}},{"type":"Feature","properties":{"osm_type":"way","osm_id":263802549,"class":"tertiary","name":"","bridge":"no","tunnel":"no","layer":"0","part":0},"geometry":{"type":"LineString","coordinates":[[139.765384,35.675224],[139.765524,35.675193],[139.765701,35.675186]]}},{"type":"Feature","properties":{"osm_type":"way","osm_id":265068939,"class":"tertiary","name":"","bridge":"no","tunnel":"no","layer":"0","part":0},"geometry":{"type":"LineString","coordinates":[[139.764219,35.6755],[139.765384,35.675224]]}},{"type":"Feature","properties":{"osm_type":"way","osm_id":269150811,"class":"tertiary","name":"鍛冶橋通り","bridge":"no","tunnel":"no","layer":"0","part":0},"geometry":{"type":"LineString","coordinates":[[139.771585,35.6755],[139.771972,35.675338]]}},{"type":"Feature","properties":{"osm_type":"way","osm_id":269150813,"class":"trunk","name":"中央通り","bridge":"no","tunnel":"no","layer":"0","part":0},"geometry":{"type":"LineString","coordinates":[[139.769363,35.6755],[139.768932,35.674855],[139.768835,35.67476]]}},{"type":"Feature","properties":{"osm_type":"way","osm_id":269150837,"class":"primary","name":"新大橋通り","bridge":"no","tunnel":"no","layer":"0","part":0},"geometry":{"type":"LineString","coordinates":[[139.770646,35.666463],[139.769137,35.665292],[139.768293,35.6645]]}},{"type":"Feature","properties":{"osm_type":"way","osm_id":269150840,"class":"primary","name":"晴海通り","bridge":"no","tunnel":"no","layer":"0","part":0},"geometry":{"type":"LineString","coordinates":[[139.767182,35.66957],[139.768409,35.668507]]}},{"type":"Feature","properties":{"osm_type":"way","osm_id":269150842,"class":"primary","name":"晴海通り","bridge":"no","tunnel":"no","layer":"0","part":0},"geometry":{"type":"LineString","coordinates":[[139.772,35.665088],[139.770646,35.666463]]}},{"type":"Feature","properties":{"osm_type":"way","osm_id":271720622,"class":"primary","name":"昭和通り","bridge":"no","tunnel":"no","layer":"0","part":0},"geometry":{"type":"LineString","coordinates":[[139.764166,35.667111],[139.763234,35.666623],[139.76299,35.666538],[139.762801,35.666499]]}},{"type":"Feature","properties":{"osm_type":"way","osm_id":271720637,"class":"primary","name":"新大橋通り","bridge":"no","tunnel":"no","layer":"0","part":0},"geometry":{"type":"LineString","coordinates":[[139.768105,35.6645],[139.76909,35.665412],[139.769353,35.665599]]}},{"type":"Feature","properties":{"osm_type":"way","osm_id":271720648,"class":"primary","name":"海岸通り","bridge":"no","tunnel":"no","layer":"0","part":0},"geometry":{"type":"LineString","coordinates":[[139.762517,35.666619],[139.762645,35.6666],[139.762742,35.66656],[139.762801,35.666499]]}},{"type":"Feature","properties":{"osm_type":"way","osm_id":271720662,"class":"secondary","name":"外濠環状線","bridge":"no","tunnel":"no","layer":"0","part":0},"geometry":{"type":"LineString","coordinates":[[139.759138,35.66669],[139.759326,35.667061]]}},{"type":"Feature","properties":{"osm_type":"way","osm_id":271720666,"class":"secondary","name":"外堀通り","bridge":"no","tunnel":"no","layer":"0","part":0},"geometry":{"type":"LineString","coordinates":[[139.759326,35.667061],[139.759,35.667166]]}},{"type":"Feature","properties":{"osm_type":"way","osm_id":271720704,"class":"primary","name":"昭和通り","bridge":"no","tunnel":"no","layer":"0","part":0},"geometry":{"type":"LineString","coordinates":[[139.762517,35.666619],[139.762796,35.666641],[139.762955,35.666673],[139.76325,35.666805]]}},{"type":"Feature","properties":{"osm_type":"way","osm_id":271720710,"class":"tertiary","name":"中央市場通り","bridge":"no","tunnel":"no","layer":"0","part":0},"geometry":{"type":"LineString","coordinates":[[139.767346,35.6645],[139.766166,35.665407]]}},{"type":"Feature","properties":{"osm_type":"way","osm_id":271720719,"class":"secondary","name":"外濠環状線","bridge":"no","tunnel":"no","layer":"0","part":0},"geometry":{"type":"LineString","coordinates":[[139.759326,35.667061],[139.759374,35.667154]]}},{"type":"Feature","properties":{"osm_type":"way","osm_id":315233373,"class":"primary","name":"昭和通り","bridge":"no","tunnel":"no","layer":"0","part":0},"geometry":{"type":"LineString","coordinates":[[139.760611,35.666725],[139.760998,35.666624],[139.761303,35.666582],[139.762517,35.666619]]}},{"type":"Feature","properties":{"osm_type":"way","osm_id":315706045,"class":"motorway_link","name":"","bridge":"yes","tunnel":"no","layer":"1","part":0},"geometry":{"type":"LineString","coordinates":[[139.770887,35.674329],[139.770246,35.674559],[139.770127,35.674579],[139.770013,35.674564],[139.769896,35.674502],[139.769738,35.674315]]}},{"type":"Feature","properties":{"osm_type":"way","osm_id":319195387,"class":"secondary","name":"外堀通り","bridge":"no","tunnel":"no","layer":"0","part":0},"geometry":{"type":"LineString","coordinates":[[139.763387,35.672719],[139.764153,35.673183],[139.764412,35.673511],[139.765853,35.6755]]}},{"type":"Feature","properties":{"osm_type":"way","osm_id":319195388,"class":"secondary","name":"外堀通り","bridge":"no","tunnel":"no","layer":"0","part":0},"geometry":{"type":"LineString","coordinates":[[139.763253,35.672454],[139.761413,35.670739],[139.760342,35.669695],[139.759593,35.669],[139.759,35.668494]]}},{"type":"Feature","properties":{"osm_type":"way","osm_id":319196850,"class":"secondary","name":"外堀通り","bridge":"no","tunnel":"no","layer":"0","part":0},"geometry":{"type":"LineString","coordinates":[[139.759,35.668592],[139.759675,35.669203],[139.763074,35.672399],[139.763175,35.672512]]}},{"type":"Feature","properties":{"osm_type":"way","osm_id":319196859,"class":"tertiary","name":"","bridge":"no","tunnel":"no","layer":"0","part":0},"geometry":{"type":"LineString","coordinates":[[139.759627,35.667649],[139.75978,35.668092]]}},{"type":"Feature","properties":{"osm_type":"way","osm_id":342481197,"class":"tertiary","name":"","bridge":"no","tunnel":"no","layer":"0","part":0},"geometry":{"type":"LineString","coordinates":[[139.770596,35.67037],[139.768955,35.671513]]}},{"type":"Feature","properties":{"osm_type":"way","osm_id":342481199,"class":"secondary","name":"外堀通り","bridge":"no","tunnel":"no","layer":"0","part":0},"geometry":{"type":"LineString","coordinates":[[139.764298,35.673183],[139.764149,35.673074],[139.763526,35.672702],[139.763331,35.672532]]}},{"type":"Feature","properties":{"osm_type":"way","osm_id":459561639,"class":"primary_link","name":"晴海通り","bridge":"no","tunnel":"no","layer":"0","part":0},"geometry":{"type":"LineString","coordinates":[[139.762737,35.672741],[139.762647,35.672753],[139.762008,35.673173]]}},{"type":"Feature","properties":{"osm_type":"way","osm_id":459561640,"class":"primary_link","name":"晴海通り","bridge":"no","tunnel":"no","layer":"0","part":0},"geometry":{"type":"LineString","coordinates":[[139.762822,35.672729],[139.762705,35.672871],[139.761995,35.673316],[139.761738,35.673416]]}},{"type":"Feature","properties":{"osm_type":"way","osm_id":459563825,"class":"primary","name":"晴海通り","bridge":"no","tunnel":"no","layer":"0","part":0},"geometry":{"type":"LineString","coordinates":[[139.763047,35.6726],[139.762822,35.672729]]}},{"type":"Feature","properties":{"osm_type":"way","osm_id":525291476,"class":"tertiary","name":"","bridge":"no","tunnel":"no","layer":"0","part":0},"geometry":{"type":"LineString","coordinates":[[139.770379,35.674443],[139.770981,35.674221]]}},{"type":"Feature","properties":{"osm_type":"way","osm_id":525291477,"class":"tertiary","name":"","bridge":"no","tunnel":"no","layer":"0","part":0},"geometry":{"type":"LineString","coordinates":[[139.771751,35.67395],[139.771212,35.674127]]}},{"type":"Feature","properties":{"osm_type":"way","osm_id":538982927,"class":"trunk","name":"中央通り","bridge":"no","tunnel":"no","layer":"0","part":0},"geometry":{"type":"LineString","coordinates":[[139.765029,35.671157],[139.761266,35.667602]]}},{"type":"Feature","properties":{"osm_type":"way","osm_id":539237084,"class":"primary","name":"晴海通り","bridge":"no","tunnel":"no","layer":"0","part":0},"geometry":{"type":"LineString","coordinates":[[139.765056,35.671288],[139.766121,35.67047],[139.76691,35.669821],[139.767182,35.66957]]}},{"type":"Feature","properties":{"osm_type":"way","osm_id":539237085,"class":"primary","name":"晴海通り","bridge":"no","tunnel":"no","layer":"0","part":0},"geometry":{"type":"LineString","coordinates":[[139.764968,35.671201],[139.763936,35.671975],[139.763253,35.672454]]}},{"type":"Feature","properties":{"osm_type":"way","osm_id":539237086,"class":"primary","name":"晴海通り","bridge":"no","tunnel":"no","layer":"0","part":0},"geometry":{"type":"LineString","coordinates":[[139.767113,35.669486],[139.766041,35.670381]]}},{"type":"Feature","properties":{"osm_type":"way","osm_id":548908713,"class":"primary_link","name":"中央通り（地下道・二輪車通行禁止）","bridge":"no","tunnel":"no","layer":"0","part":0},"geometry":{"type":"LineString","coordinates":[[139.759397,35.665613],[139.759532,35.665654]]}},{"type":"Feature","properties":{"osm_type":"way","osm_id":548908717,"class":"primary_link","name":"新橋地下道","bridge":"no","tunnel":"yes","layer":"-1","part":0},"geometry":{"type":"LineString","coordinates":[[139.760213,35.666465],[139.760321,35.666542],[139.760468,35.666582],[139.760624,35.666602],[139.761399,35.666525],[139.762639,35.666567],[139.762957,35.666615],[139.763289,35.666761]]}},{"type":"Feature","properties":{"osm_type":"way","osm_id":548908718,"class":"primary_link","name":"昭和通り","bridge":"no","tunnel":"no","layer":"-1","part":0},"geometry":{"type":"LineString","coordinates":[[139.763289,35.666761],[139.763904,35.667087],[139.76415,35.667244]]}},{"type":"Feature","properties":{"osm_type":"way","osm_id":548908719,"class":"primary","name":"昭和通り","bridge":"no","tunnel":"no","layer":"-1","part":0},"geometry":{"type":"LineString","coordinates":[[139.764767,35.667735],[139.765725,35.668503]]}},{"type":"Feature","properties":{"osm_type":"way","osm_id":568498790,"class":"primary","name":"晴海通り","bridge":"no","tunnel":"no","layer":"0","part":0},"geometry":{"type":"LineString","coordinates":[[139.765029,35.671157],[139.764968,35.671201]]}},{"type":"Feature","properties":{"osm_type":"way","osm_id":568498791,"class":"trunk","name":"中央通り","bridge":"no","tunnel":"no","layer":"0","part":0},"geometry":{"type":"LineString","coordinates":[[139.768835,35.67476],[139.765115,35.671242]]}},{"type":"Feature","properties":{"osm_type":"way","osm_id":580847357,"class":"primary","name":"昭和通り","bridge":"no","tunnel":"no","layer":"0","part":0},"geometry":{"type":"LineString","coordinates":[[139.767182,35.66957],[139.766993,35.66936],[139.765194,35.667881],[139.764166,35.667111]]}},{"type":"Feature","properties":{"osm_type":"way","osm_id":593037725,"class":"motorway","name":"首都高速都心環状線","bridge":"no","tunnel":"no","layer":"0","part":0},"geometry":{"type":"LineString","coordinates":[[139.771913,35.671588],[139.772,35.671887]]}},{"type":"Feature","properties":{"osm_type":"way","osm_id":593037726,"class":"motorway","name":"首都高速都心環状線","bridge":"no","tunnel":"no","layer":"0","part":0},"geometry":{"type":"LineString","coordinates":[[139.771913,35.671588],[139.772,35.67179]]}},{"type":"Feature","properties":{"osm_type":"way","osm_id":636502357,"class":"primary","name":"晴海通り","bridge":"no","tunnel":"no","layer":"0","part":0},"geometry":{"type":"LineString","coordinates":[[139.770646,35.666463],[139.769648,35.667331],[139.768636,35.668152]]}},{"type":"Feature","properties":{"osm_type":"way","osm_id":636502358,"class":"primary","name":"晴海通り","bridge":"no","tunnel":"no","layer":"0","part":0},"geometry":{"type":"LineString","coordinates":[[139.768698,35.668248],[139.769728,35.66741],[139.770645,35.666609]]}},{"type":"Feature","properties":{"osm_type":"way","osm_id":651701877,"class":"tertiary","name":"銀中通り","bridge":"no","tunnel":"no","layer":"0","part":0},"geometry":{"type":"LineString","coordinates":[[139.763463,35.666735],[139.763542,35.666629],[139.764698,35.665703],[139.76474,35.665693]]}},{"type":"Feature","properties":{"osm_type":"way","osm_id":660972503,"class":"secondary","name":"日比谷通り","bridge":"no","tunnel":"no","layer":"0","part":0},"geometry":{"type":"LineString","coordinates":[[139.759,35.674585],[139.759538,35.675123]]}},{"type":"Feature","properties":{"osm_type":"way","osm_id":660988514,"class":"tertiary","name":"","bridge":"no","tunnel":"no","layer":"0","part":0},"geometry":{"type":"LineString","coordinates":[[139.759,35.672593],[139.760623,35.671995]]}},{"type":"Feature","properties":{"osm_type":"way","osm_id":665702982,"class":"secondary","name":"外濠環状線","bridge":"no","tunnel":"no","layer":"0","part":0},"geometry":{"type":"LineString","coordinates":[[139.759,35.665688],[139.75906,35.665816]]}},{"type":"Feature","properties":{"osm_type":"way","osm_id":667962674,"class":"trunk","name":"中央通り","bridge":"no","tunnel":"no","layer":"0","part":0},"geometry":{"type":"LineString","coordinates":[[139.760462,35.666778],[139.760634,35.666931],[139.761189,35.667628]]}},{"type":"Feature","properties":{"osm_type":"way","osm_id":667962675,"class":"trunk","name":"中央通り","bridge":"no","tunnel":"no","layer":"0","part":0},"geometry":{"type":"LineString","coordinates":[[139.761266,35.667602],[139.760611,35.666725]]}},{"type":"Feature","properties":{"osm_type":"way","osm_id":667962676,"class":"tertiary","name":"御門通り","bridge":"no","tunnel":"no","layer":"0","part":0},"geometry":{"type":"LineString","coordinates":[[139.761266,35.667602],[139.761189,35.667628]]}},{"type":"Feature","properties":{"osm_type":"way","osm_id":667962677,"class":"tertiary","name":"御門通り","bridge":"no","tunnel":"no","layer":"0","part":0},"geometry":{"type":"LineString","coordinates":[[139.762517,35.666619],[139.762609,35.666729],[139.76252,35.666931]]}},{"type":"Feature","properties":{"osm_type":"way","osm_id":667962682,"class":"tertiary","name":"平成通り","bridge":"no","tunnel":"no","layer":"0","part":0},"geometry":{"type":"LineString","coordinates":[[139.772,35.669277],[139.77061,35.668141]]}},{"type":"Feature","properties":{"osm_type":"way","osm_id":680788589,"class":"primary","name":"新大橋通り","bridge":"no","tunnel":"no","layer":"0","part":0},"geometry":{"type":"LineString","coordinates":[[139.769353,35.665599],[139.770645,35.666609]]}},{"type":"Feature","properties":{"osm_type":"way","osm_id":680788590,"class":"tertiary","name":"補助第316号線","bridge":"no","tunnel":"no","layer":"0","part":0},"geometry":{"type":"LineString","coordinates":[[139.769353,35.665599],[139.769461,35.66554]]}},{"type":"Feature","properties":{"osm_type":"way","osm_id":680788591,"class":"primary","name":"晴海通り","bridge":"no","tunnel":"no","layer":"0","part":0},"geometry":{"type":"LineString","coordinates":[[139.768636,35.668152],[139.768606,35.668177]]}},{"type":"Feature","properties":{"osm_type":"way","osm_id":680788593,"class":"primary","name":"晴海通り","bridge":"no","tunnel":"no","layer":"0","part":0},"geometry":{"type":"LineString","coordinates":[[139.766041,35.670381],[139.765549,35.670777],[139.765029,35.671157]]}},{"type":"Feature","properties":{"osm_type":"way","osm_id":682718132,"class":"primary","name":"晴海通り","bridge":"no","tunnel":"no","layer":"0","part":0},"geometry":{"type":"LineString","coordinates":[[139.763253,35.672454],[139.763175,35.672512]]}},{"type":"Feature","properties":{"osm_type":"way","osm_id":690198419,"class":"tertiary","name":"銀座桜通り","bridge":"no","tunnel":"no","layer":"0","part":0},"geometry":{"type":"LineString","coordinates":[[139.76751,35.675154],[139.767222,35.675244]]}},{"type":"Feature","properties":{"osm_type":"way","osm_id":690198420,"class":"tertiary","name":"銀座桜通り","bridge":"no","tunnel":"no","layer":"0","part":0},"geometry":{"type":"LineString","coordinates":[[139.767222,35.675244],[139.766375,35.6755]]}},{"type":"Feature","properties":{"osm_type":"way","osm_id":690198421,"class":"tertiary","name":"銀座桜通り","bridge":"no","tunnel":"no","layer":"0","part":0},"geometry":{"type":"LineString","coordinates":[[139.767758,35.675075],[139.76751,35.675154]]}},{"type":"Feature","properties":{"osm_type":"way","osm_id":691015435,"class":"primary","name":"晴海通り","bridge":"no","tunnel":"no","layer":"0","part":0},"geometry":{"type":"LineString","coordinates":[[139.759538,35.675123],[139.759674,35.674992]]}},{"type":"Feature","properties":{"osm_type":"way","osm_id":706016194,"class":"motorway_link","name":"首都高速都心環状線","bridge":"yes","tunnel":"no","layer":"2","part":0},"geometry":{"type":"LineString","coordinates":[[139.772,35.674006],[139.771857,35.674018],[139.771505,35.67413]]}},{"type":"Feature","properties":{"osm_type":"way","osm_id":734696705,"class":"tertiary","name":"日比谷仲通り","bridge":"no","tunnel":"no","layer":"0","part":0},"geometry":{"type":"LineString","coordinates":[[139.760268,35.673854],[139.760604,35.674146]]}},{"type":"Feature","properties":{"osm_type":"way","osm_id":759508060,"class":"primary_link","name":"","bridge":"no","tunnel":"no","layer":"0","part":0},"geometry":{"type":"LineString","coordinates":[[139.763421,35.665044],[139.763406,35.664963],[139.763357,35.664888],[139.763264,35.664861],[139.763162,35.664889],[139.763095,35.665013]]}},{"type":"Feature","properties":{"osm_type":"way","osm_id":760748024,"class":"motorway_link","name":"","bridge":"no","tunnel":"no","layer":"0","part":0},"geometry":{"type":"LineString","coordinates":[[139.76768,35.667801],[139.767984,35.668073],[139.768016,35.668152],[139.767985,35.668213]]}},{"type":"Feature","properties":{"osm_type":"way","osm_id":760748025,"class":"motorway_link","name":"銀座入口","bridge":"no","tunnel":"no","layer":"0","part":0},"geometry":{"type":"LineString","coordinates":[[139.767066,35.666151],[139.766783,35.66596],[139.76594,35.665286],[139.765342,35.664728]]}},{"type":"Feature","properties":{"osm_type":"way","osm_id":760778286,"class":"primary","name":"昭和通り","bridge":"no","tunnel":"no","layer":"0","part":0},"geometry":{"type":"LineString","coordinates":[[139.764824,35.667688],[139.764604,35.66745]]}},{"type":"Feature","properties":{"osm_type":"way","osm_id":760778287,"class":"primary_link","name":"昭和通り","bridge":"no","tunnel":"no","layer":"0","part":0},"geometry":{"type":"LineString","coordinates":[[139.76415,35.667244],[139.764767,35.667735]]}},{"type":"Feature","properties":{"osm_type":"way","osm_id":760779954,"class":"primary","name":"昭和通り","bridge":"no","tunnel":"no","layer":"-1","part":0},"geometry":{"type":"LineString","coordinates":[[139.769871,35.672656],[139.769193,35.6719]]}},{"type":"Feature","properties":{"osm_type":"way","osm_id":760779955,"class":"primary","name":"昭和通り","bridge":"no","tunnel":"no","layer":"0","part":0},"geometry":{"type":"LineString","coordinates":[[139.770586,35.673615],[139.770712,35.673697],[139.770822,35.673823]]}},{"type":"Feature","properties":{"osm_type":"way","osm_id":760779956,"class":"primary","name":"昭和通り","bridge":"no","tunnel":"no","layer":"0","part":0},"geometry":{"type":"LineString","coordinates":[[139.770894,35.673926],[139.771406,35.674739]]}},{"type":"Feature","properties":{"osm_type":"way","osm_id":760779957,"class":"primary","name":"昭和通り","bridge":"no","tunnel":"no","layer":"0","part":0},"geometry":{"type":"LineString","coordinates":[[139.770966,35.673901],[139.770898,35.6738]]}},{"type":"Feature","properties":{"osm_type":"way","osm_id":813418915,"class":"primary_link","name":"","bridge":"no","tunnel":"no","layer":"0","part":0},"geometry":{"type":"LineString","coordinates":[[139.763238,35.6645],[139.763275,35.664524],[139.76332,35.664529],[139.763404,35.6645]]}},{"type":"Feature","properties":{"osm_type":"way","osm_id":820180316,"class":"secondary_link","name":"","bridge":"yes","tunnel":"no","layer":"1","part":0},"geometry":{"type":"LineString","coordinates":[[139.772,35.67124],[139.77194,35.671253]]}},{"type":"Feature","properties":{"osm_type":"way","osm_id":820180319,"class":"secondary","name":"佃大橋通り","bridge":"yes","tunnel":"no","layer":"1","part":0},"geometry":{"type":"LineString","coordinates":[[139.771971,35.670971],[139.771954,35.671002],[139.77194,35.671253]]}},{"type":"Feature","properties":{"osm_type":"way","osm_id":820180321,"class":"secondary","name":"佃大橋通り","bridge":"yes","tunnel":"no","layer":"1","part":0},"geometry":{"type":"LineString","coordinates":[[139.77194,35.671253],[139.772,35.671285]]}},{"type":"Feature","properties":{"osm_type":"way","osm_id":837311012,"class":"trunk","name":"第一京浜","bridge":"no","tunnel":"no","layer":"0","part":0},"geometry":{"type":"LineString","coordinates":[[139.760524,35.666615],[139.759635,35.665562]]}},{"type":"Feature","properties":{"osm_type":"way","osm_id":854239334,"class":"trunk","name":"第一京浜","bridge":"no","tunnel":"no","layer":"0","part":0},"geometry":{"type":"LineString","coordinates":[[139.759265,35.665429],[139.759397,35.665613]]}},{"type":"Feature","properties":{"osm_type":"way","osm_id":854239335,"class":"secondary","name":"新橋日の出ふ頭線","bridge":"no","tunnel":"no","layer":"0","part":0},"geometry":{"type":"LineString","coordinates":[[139.759539,35.665449],[139.759397,35.665613]]}},{"type":"Feature","properties":{"osm_type":"way","osm_id":854532682,"class":"primary_link","name":"","bridge":"no","tunnel":"no","layer":"0","part":0},"geometry":{"type":"LineString","coordinates":[[139.759532,35.665654],[139.760213,35.666465]]}},{"type":"Feature","properties":{"osm_type":"way","osm_id":862139022,"class":"trunk","name":"晴海通り","bridge":"no","tunnel":"no","layer":"0","part":0},"geometry":{"type":"LineString","coordinates":[[139.759,35.675481],[139.75923,35.675355],[139.759538,35.675123]]}},{"type":"Feature","properties":{"osm_type":"way","osm_id":879780889,"class":"primary","name":"昭和通り","bridge":"no","tunnel":"no","layer":"0","part":0},"geometry":{"type":"LineString","coordinates":[[139.762463,35.666473],[139.76222,35.666463]]}},{"type":"Feature","properties":{"osm_type":"way","osm_id":879780890,"class":"primary","name":"昭和通り","bridge":"no","tunnel":"no","layer":"0","part":0},"geometry":{"type":"LineString","coordinates":[[139.762801,35.666499],[139.762463,35.666473]]}},{"type":"Feature","properties":{"osm_type":"way","osm_id":879780891,"class":"primary","name":"海岸通り","bridge":"no","tunnel":"no","layer":"0","part":0},"geometry":{"type":"LineString","coordinates":[[139.762801,35.666499],[139.763195,35.665719],[139.763374,35.665282],[139.763421,35.665044],[139.763476,35.6645]]}},{"type":"Feature","properties":{"osm_type":"way","osm_id":879780893,"class":"primary","name":"海岸通り","bridge":"no","tunnel":"no","layer":"0","part":0},"geometry":{"type":"LineString","coordinates":[[139.762464,35.666365],[139.762389,35.666414],[139.76222,35.666463]]}},{"type":"Feature","properties":{"osm_type":"way","osm_id":879780894,"class":"primary","name":"海岸通り","bridge":"no","tunnel":"no","layer":"0","part":0},"geometry":{"type":"LineString","coordinates":[[139.762464,35.666365],[139.762463,35.666473]]}},{"type":"Feature","properties":{"osm_type":"way","osm_id":879780895,"class":"primary","name":"昭和通り","bridge":"no","tunnel":"no","layer":"0","part":0},"geometry":{"type":"LineString","coordinates":[[139.76222,35.666463],[139.761286,35.666435],[139.761039,35.66646],[139.760864,35.666501],[139.760524,35.666615]]}},{"type":"Feature","properties":{"osm_type":"way","osm_id":883261843,"class":"tertiary","name":"","bridge":"no","tunnel":"no","layer":"0","part":0},"geometry":{"type":"LineString","coordinates":[[139.760708,35.674238],[139.760604,35.674146]]}},{"type":"Feature","properties":{"osm_type":"way","osm_id":883261846,"class":"primary","name":"晴海通り","bridge":"no","tunnel":"no","layer":"0","part":0},"geometry":{"type":"LineString","coordinates":[[139.759674,35.674992],[139.759846,35.674842],[139.76041,35.674447]]}},{"type":"Feature","properties":{"osm_type":"way","osm_id":883261847,"class":"primary","name":"晴海通り","bridge":"no","tunnel":"no","layer":"0","part":0},"geometry":{"type":"LineString","coordinates":[[139.760708,35.674238],[139.76173,35.67357]]}},{"type":"Feature","properties":{"osm_type":"way","osm_id":883261848,"class":"primary","name":"晴海通り","bridge":"no","tunnel":"no","layer":"0","part":0},"geometry":{"type":"LineString","coordinates":[[139.760604,35.674146],[139.759742,35.674758],[139.759576,35.674896]]}},{"type":"Feature","properties":{"osm_type":"way","osm_id":883261850,"class":"primary","name":"晴海通り","bridge":"no","tunnel":"no","layer":"0","part":0},"geometry":{"type":"LineString","coordinates":[[139.76041,35.674447],[139.760701,35.674243]]}},{"type":"Feature","properties":{"osm_type":"way","osm_id":883261851,"class":"primary","name":"晴海通り","bridge":"no","tunnel":"no","layer":"0","part":0},"geometry":{"type":"LineString","coordinates":[[139.760933,35.673937],[139.760604,35.674146]]}},{"type":"Feature","properties":{"osm_type":"way","osm_id":884274229,"class":"primary","name":"晴海通り","bridge":"no","tunnel":"no","layer":"0","part":0},"geometry":{"type":"LineString","coordinates":[[139.763457,35.672443],[139.764025,35.672055],[139.765056,35.671288]]}},{"type":"Feature","properties":{"osm_type":"way","osm_id":894593240,"class":"primary_link","name":"(20時から翌日8時まで右折可)","bridge":"no","tunnel":"no","layer":"-1","part":0},"geometry":{"type":"LineString","coordinates":[[139.760532,35.666626],[139.76051,35.666621]]}},{"type":"Feature","properties":{"osm_type":"way","osm_id":894593241,"class":"primary","name":"昭和通り","bridge":"no","tunnel":"no","layer":"0","part":0},"geometry":{"type":"LineString","coordinates":[[139.760524,35.666615],[139.76051,35.666621]]}},{"type":"Feature","properties":{"osm_type":"way","osm_id":894593242,"class":"primary","name":"昭和通り","bridge":"no","tunnel":"no","layer":"0","part":0},"geometry":{"type":"LineString","coordinates":[[139.76051,35.666621],[139.760342,35.666695]]}},{"type":"Feature","properties":{"osm_type":"way","osm_id":894593243,"class":"trunk","name":"中央通り","bridge":"no","tunnel":"no","layer":"0","part":0},"geometry":{"type":"LineString","coordinates":[[139.760532,35.666626],[139.760524,35.666615]]}},{"type":"Feature","properties":{"osm_type":"way","osm_id":894991909,"class":"primary","name":"海岸通り","bridge":"no","tunnel":"no","layer":"0","part":0},"geometry":{"type":"LineString","coordinates":[[139.763145,35.6645],[139.763124,35.664817],[139.763035,35.665307],[139.762934,35.665544],[139.762812,35.665751]]}},{"type":"Feature","properties":{"osm_type":"way","osm_id":895804509,"class":"tertiary","name":"御門通り","bridge":"no","tunnel":"no","layer":"0","part":0},"geometry":{"type":"LineString","coordinates":[[139.762448,35.667062],[139.762323,35.66719]]}},{"type":"Feature","properties":{"osm_type":"way","osm_id":895804510,"class":"tertiary","name":"御門通り","bridge":"no","tunnel":"no","layer":"0","part":0},"geometry":{"type":"LineString","coordinates":[[139.762323,35.66719],[139.762143,35.667305],[139.761266,35.667602]]}},{"type":"Feature","properties":{"osm_type":"way","osm_id":895804511,"class":"tertiary","name":"御門通り","bridge":"no","tunnel":"no","layer":"0","part":0},"geometry":{"type":"LineString","coordinates":[[139.76252,35.666931],[139.762448,35.667062]]}},{"type":"Feature","properties":{"osm_type":"way","osm_id":922026090,"class":"secondary","name":"外堀通り","bridge":"no","tunnel":"no","layer":"0","part":0},"geometry":{"type":"LineString","coordinates":[[139.765988,35.6755],[139.765693,35.67507],[139.764298,35.673183]]}},{"type":"Feature","properties":{"osm_type":"way","osm_id":929013755,"class":"secondary","name":"新橋日の出ふ頭線","bridge":"no","tunnel":"no","layer":"0","part":0},"geometry":{"type":"LineString","coordinates":[[139.761261,35.6645],[139.760739,35.664793]]}},{"type":"Feature","properties":{"osm_type":"way","osm_id":929013758,"class":"trunk","name":"第一京浜","bridge":"no","tunnel":"no","layer":"0","part":0},"geometry":{"type":"LineString","coordinates":[[139.759539,35.665449],[139.759,35.664793]]}},{"type":"Feature","properties":{"osm_type":"way","osm_id":932390016,"class":"primary","name":"晴海通り","bridge":"no","tunnel":"no","layer":"0","part":0},"geometry":{"type":"LineString","coordinates":[[139.76163,35.673488],[139.760933,35.673937]]}},{"type":"Feature","properties":{"osm_type":"way","osm_id":932390017,"class":"primary","name":"晴海通り","bridge":"no","tunnel":"no","layer":"0","part":0},"geometry":{"type":"LineString","coordinates":[[139.76173,35.67357],[139.761835,35.673503]]}},{"type":"Feature","properties":{"osm_type":"way","osm_id":932390018,"class":"secondary","name":"錦町有楽町線","bridge":"no","tunnel":"no","layer":"0","part":0},"geometry":{"type":"LineString","coordinates":[[139.761835,35.673503],[139.761738,35.673416]]}},{"type":"Feature","properties":{"osm_type":"way","osm_id":942581082,"class":"primary","name":"晴海通り","bridge":"no","tunnel":"no","layer":"0","part":0},"geometry":{"type":"LineString","coordinates":[[139.763331,35.672532],[139.763457,35.672443]]}},{"type":"Feature","properties":{"osm_type":"way","osm_id":942581083,"class":"secondary","name":"外堀通り","bridge":"no","tunnel":"no","layer":"0","part":0},"geometry":{"type":"LineString","coordinates":[[139.763252,35.672587],[139.763387,35.672719]]}},{"type":"Feature","properties":{"osm_type":"way","osm_id":942581084,"class":"primary","name":"晴海通り","bridge":"no","tunnel":"no","layer":"0","part":0},"geometry":{"type":"LineString","coordinates":[[139.763175,35.672512],[139.763047,35.6726]]}},{"type":"Feature","properties":{"osm_type":"way","osm_id":942581087,"class":"secondary","name":"外堀通り","bridge":"no","tunnel":"no","layer":"0","part":0},"geometry":{"type":"LineString","coordinates":[[139.763331,35.672532],[139.763253,35.672454]]}},{"type":"Feature","properties":{"osm_type":"way","osm_id":942581088,"class":"primary","name":"晴海通り","bridge":"no","tunnel":"no","layer":"0","part":0},"geometry":{"type":"LineString","coordinates":[[139.763252,35.672587],[139.763331,35.672532]]}},{"type":"Feature","properties":{"osm_type":"way","osm_id":942581089,"class":"secondary","name":"外堀通り","bridge":"no","tunnel":"no","layer":"0","part":0},"geometry":{"type":"LineString","coordinates":[[139.763175,35.672512],[139.763252,35.672587]]}},{"type":"Feature","properties":{"osm_type":"way","osm_id":968060905,"class":"primary","name":"昭和通り","bridge":"no","tunnel":"no","layer":"0","part":0},"geometry":{"type":"LineString","coordinates":[[139.77192,35.675254],[139.77098,35.67378]]}},{"type":"Feature","properties":{"osm_type":"way","osm_id":968060906,"class":"tertiary","name":"銀座桜通り","bridge":"no","tunnel":"no","layer":"0","part":0},"geometry":{"type":"LineString","coordinates":[[139.772,35.673523],[139.771588,35.673667]]}},{"type":"Feature","properties":{"osm_type":"way","osm_id":968060907,"class":"tertiary","name":"銀座桜通り","bridge":"no","tunnel":"no","layer":"0","part":0},"geometry":{"type":"LineString","coordinates":[[139.771588,35.673667],[139.77098,35.67378]]}},{"type":"Feature","properties":{"osm_type":"way","osm_id":968060908,"class":"tertiary","name":"銀座桜通り","bridge":"no","tunnel":"no","layer":"0","part":0},"geometry":{"type":"LineString","coordinates":[[139.770822,35.673823],[139.770741,35.673847]]}},{"type":"Feature","properties":{"osm_type":"way","osm_id":968060909,"class":"primary","name":"昭和通り","bridge":"no","tunnel":"no","layer":"0","part":0},"geometry":{"type":"LineString","coordinates":[[139.770822,35.673823],[139.770894,35.673926]]}},{"type":"Feature","properties":{"osm_type":"way","osm_id":968060910,"class":"tertiary","name":"銀座桜通り","bridge":"no","tunnel":"no","layer":"0","part":0},"geometry":{"type":"LineString","coordinates":[[139.770741,35.673847],[139.770092,35.674064],[139.769795,35.674209],[139.769538,35.674341],[139.768958,35.674727]]}},{"type":"Feature","properties":{"osm_type":"way","osm_id":968060911,"class":"tertiary","name":"銀座桜通り","bridge":"no","tunnel":"no","layer":"0","part":0},"geometry":{"type":"LineString","coordinates":[[139.770898,35.6738],[139.770822,35.673823]]}},{"type":"Feature","properties":{"osm_type":"way","osm_id":968060912,"class":"primary","name":"昭和通り","bridge":"no","tunnel":"no","layer":"0","part":0},"geometry":{"type":"LineString","coordinates":[[139.770898,35.6738],[139.770743,35.67358]]}},{"type":"Feature","properties":{"osm_type":"way","osm_id":1009766031,"class":"secondary","name":"外濠環状線（新橋駅汐留口交通広場）","bridge":"no","tunnel":"no","layer":"1","part":0},"geometry":{"type":"LineString","coordinates":[[139.759138,35.66669],[139.75918,35.666408]]}},{"type":"Feature","properties":{"osm_type":"way","osm_id":1025991803,"class":"tertiary","name":"御門通り","bridge":"no","tunnel":"no","layer":"0","part":0},"geometry":{"type":"LineString","coordinates":[[139.75978,35.668092],[139.759062,35.668328],[139.759,35.668356]]}},{"type":"Feature","properties":{"osm_type":"way","osm_id":1025991804,"class":"secondary","name":"外堀通り","bridge":"no","tunnel":"no","layer":"0","part":0},"geometry":{"type":"LineString","coordinates":[[139.759192,35.667214],[139.759374,35.667154]]}},{"type":"Feature","properties":{"osm_type":"way","osm_id":1025991805,"class":"tertiary","name":"","bridge":"no","tunnel":"no","layer":"0","part":0},"geometry":{"type":"LineString","coordinates":[[139.75957,35.667537],[139.759627,35.667649]]}},{"type":"Feature","properties":{"osm_type":"way","osm_id":1026056857,"class":"trunk","name":"中央通り","bridge":"no","tunnel":"no","layer":"0","part":0},"geometry":{"type":"LineString","coordinates":[[139.765056,35.671288],[139.768754,35.674781]]}},{"type":"Feature","properties":{"osm_type":"way","osm_id":1031976629,"class":"tertiary","name":"鍛冶橋通り","bridge":"no","tunnel":"no","layer":"0","part":0},"geometry":{"type":"LineString","coordinates":[[139.77192,35.675254],[139.771321,35.6755]]}},{"type":"Feature","properties":{"osm_type":"way","osm_id":1031976631,"class":"primary","name":"昭和通り","bridge":"no","tunnel":"no","layer":"0","part":0},"geometry":{"type":"LineString","coordinates":[[139.771972,35.675338],[139.77192,35.675254]]}},{"type":"Feature","properties":{"osm_type":"way","osm_id":1035329235,"class":"secondary","name":"外濠環状線（新橋駅汐留口交通広場）","bridge":"no","tunnel":"no","layer":"2","part":0},"geometry":{"type":"LineString","coordinates":[[139.759221,35.666181],[139.759228,35.666077],[139.759172,35.665976]]}},{"type":"Feature","properties":{"osm_type":"way","osm_id":1055853354,"class":"tertiary","name":"","bridge":"no","tunnel":"no","layer":"0","part":0},"geometry":{"type":"LineString","coordinates":[[139.769648,35.667331],[139.768523,35.66639]]}},{"type":"Feature","properties":{"osm_type":"way","osm_id":1055857396,"class":"primary","name":"新大橋通り","bridge":"no","tunnel":"no","layer":"0","part":0},"geometry":{"type":"LineString","coordinates":[[139.771689,35.667417],[139.772,35.667664]]}},{"type":"Feature","properties":{"osm_type":"way","osm_id":1055857397,"class":"tertiary","name":"平成通り","bridge":"no","tunnel":"no","layer":"0","part":0},"geometry":{"type":"LineString","coordinates":[[139.77061,35.668141],[139.769804,35.667478],[139.769648,35.667331]]}},{"type":"Feature","properties":{"osm_type":"way","osm_id":1056392657,"class":"motorway_link","name":"東京高速道路KK線","bridge":"yes","tunnel":"no","layer":"2","part":0},"geometry":{"type":"LineString","coordinates":[[139.771505,35.67413],[139.771452,35.674152]]}},{"type":"Feature","properties":{"osm_type":"way","osm_id":1070720646,"class":"tertiary","name":"銀座桜通り","bridge":"no","tunnel":"no","layer":"0","part":0},"geometry":{"type":"LineString","coordinates":[[139.768637,35.674813],[139.767758,35.675075]]}},{"type":"Feature","properties":{"osm_type":"way","osm_id":1070720648,"class":"tertiary","name":"銀座桜通り","bridge":"no","tunnel":"no","layer":"0","part":0},"geometry":{"type":"LineString","coordinates":[[139.768958,35.674727],[139.768835,35.67476]]}},{"type":"Feature","properties":{"osm_type":"way","osm_id":1070720649,"class":"tertiary","name":"銀座桜通り","bridge":"no","tunnel":"no","layer":"0","part":0},"geometry":{"type":"LineString","coordinates":[[139.768754,35.674781],[139.768637,35.674813]]}},{"type":"Feature","properties":{"osm_type":"way","osm_id":1070720650,"class":"tertiary","name":"銀座桜通り","bridge":"no","tunnel":"no","layer":"0","part":0},"geometry":{"type":"LineString","coordinates":[[139.768835,35.67476],[139.768754,35.674781]]}},{"type":"Feature","properties":{"osm_type":"way","osm_id":1070720653,"class":"trunk","name":"中央通り","bridge":"no","tunnel":"no","layer":"0","part":0},"geometry":{"type":"LineString","coordinates":[[139.768754,35.674781],[139.768855,35.674886],[139.769171,35.67535],[139.769265,35.6755]]}},{"type":"Feature","properties":{"osm_type":"way","osm_id":1090618166,"class":"trunk","name":"中央通り","bridge":"no","tunnel":"no","layer":"0","part":0},"geometry":{"type":"LineString","coordinates":[[139.764968,35.671201],[139.765056,35.671288]]}},{"type":"Feature","properties":{"osm_type":"way","osm_id":1090618167,"class":"trunk","name":"中央通り","bridge":"no","tunnel":"no","layer":"0","part":0},"geometry":{"type":"LineString","coordinates":[[139.765115,35.671242],[139.765029,35.671157]]}},{"type":"Feature","properties":{"osm_type":"way","osm_id":1112063970,"class":"primary_link","name":"晴海通り","bridge":"no","tunnel":"no","layer":"0","part":0},"geometry":{"type":"LineString","coordinates":[[139.762008,35.673173],[139.761738,35.673416]]}},{"type":"Feature","properties":{"osm_type":"way","osm_id":1132178318,"class":"secondary","name":"烏森通り","bridge":"no","tunnel":"no","layer":"0","part":0},"geometry":{"type":"LineString","coordinates":[[139.759,35.665262],[139.759105,35.665205]]}},{"type":"Feature","properties":{"osm_type":"way","osm_id":1158715735,"class":"primary_link","name":"晴海通り(左側の側道)","bridge":"no","tunnel":"no","layer":"0","part":0},"geometry":{"type":"LineString","coordinates":[[139.762822,35.672729],[139.762737,35.672741]]}},{"type":"Feature","properties":{"osm_type":"way","osm_id":1158715736,"class":"trunk","name":"日比谷通り","bridge":"no","tunnel":"no","layer":"0","part":0},"geometry":{"type":"LineString","coordinates":[[139.759674,35.674992],[139.759576,35.674896]]}},{"type":"Feature","properties":{"osm_type":"way","osm_id":1158715738,"class":"trunk","name":"晴海通り","bridge":"no","tunnel":"no","layer":"0","part":0},"geometry":{"type":"LineString","coordinates":[[139.759576,35.674896],[139.759315,35.675109]]}},{"type":"Feature","properties":{"osm_type":"way","osm_id":1168165882,"class":"secondary","name":"新橋日の出ふ頭線","bridge":"no","tunnel":"no","layer":"0","part":0},"geometry":{"type":"LineString","coordinates":[[139.760369,35.664999],[139.759539,35.665449]]}},{"type":"Feature","properties":{"osm_type":"way","osm_id":1168165883,"class":"secondary","name":"新橋日の出ふ頭線","bridge":"no","tunnel":"no","layer":"0","part":0},"geometry":{"type":"LineString","coordinates":[[139.760739,35.664793],[139.760369,35.664999]]}},{"type":"Feature","properties":{"osm_type":"way","osm_id":1208277134,"class":"secondary","name":"外濠環状線（新橋駅汐留口交通広場）","bridge":"no","tunnel":"no","layer":"2","part":0},"geometry":{"type":"LineString","coordinates":[[139.75918,35.666408],[139.759221,35.666181]]}},{"type":"Feature","properties":{"osm_type":"way","osm_id":1245764633,"class":"primary","name":"昭和通り","bridge":"no","tunnel":"no","layer":"0","part":0},"geometry":{"type":"LineString","coordinates":[[139.771694,35.675342],[139.771792,35.6755]]}},{"type":"Feature","properties":{"osm_type":"way","osm_id":1245989819,"class":"primary","name":"昭和通り","bridge":"no","tunnel":"no","layer":"0","part":0},"geometry":{"type":"LineString","coordinates":[[139.770082,35.673043],[139.770586,35.673615]]}},{"type":"Feature","properties":{"osm_type":"way","osm_id":1245989820,"class":"primary","name":"昭和通り","bridge":"no","tunnel":"no","layer":"0","part":0},"geometry":{"type":"LineString","coordinates":[[139.770586,35.673615],[139.770644,35.673732],[139.770741,35.673847]]}},{"type":"Feature","properties":{"osm_type":"way","osm_id":1245989821,"class":"primary","name":"昭和通り","bridge":"no","tunnel":"no","layer":"0","part":0},"geometry":{"type":"LineString","coordinates":[[139.76996,35.672866],[139.770082,35.673043]]}},{"type":"Feature","properties":{"osm_type":"way","osm_id":1245989822,"class":"primary","name":"昭和通り","bridge":"no","tunnel":"no","layer":"0","part":0},"geometry":{"type":"LineString","coordinates":[[139.77098,35.67378],[139.770743,35.67358]]}},{"type":"Feature","properties":{"osm_type":"way","osm_id":1245989823,"class":"primary","name":"昭和通り","bridge":"no","tunnel":"no","layer":"0","part":0},"geometry":{"type":"LineString","coordinates":[[139.770187,35.672949],[139.770029,35.672832]]}},{"type":"Feature","properties":{"osm_type":"way","osm_id":1245989824,"class":"primary","name":"昭和通り","bridge":"no","tunnel":"no","layer":"0","part":0},"geometry":{"type":"LineString","coordinates":[[139.770743,35.67358],[139.770187,35.672949]]}},{"type":"Feature","properties":{"osm_type":"way","osm_id":1245989825,"class":"primary","name":"昭和通り","bridge":"no","tunnel":"no","layer":"0","part":0},"geometry":{"type":"LineString","coordinates":[[139.769802,35.67269],[139.76996,35.672866]]}},{"type":"Feature","properties":{"osm_type":"way","osm_id":1245989826,"class":"primary","name":"昭和通り","bridge":"no","tunnel":"no","layer":"0","part":0},"geometry":{"type":"LineString","coordinates":[[139.770029,35.672832],[139.769871,35.672656]]}},{"type":"Feature","properties":{"osm_type":"way","osm_id":1284334992,"class":"motorway","name":"首都高速都心環状線","bridge":"no","tunnel":"no","layer":"0","part":0},"geometry":{"type":"LineString","coordinates":[[139.771596,35.670913],[139.77148,35.670781]]}},{"type":"Feature","properties":{"osm_type":"way","osm_id":1284334995,"class":"primary","name":"新大橋通り","bridge":"no","tunnel":"no","layer":"0","part":0},"geometry":{"type":"LineString","coordinates":[[139.772,35.667528],[139.770646,35.666463]]}},{"type":"Feature","properties":{"osm_type":"way","osm_id":1419317432,"class":"primary","name":"晴海通り(進路変更禁止)","bridge":"no","tunnel":"no","layer":"0","part":0},"geometry":{"type":"LineString","coordinates":[[139.76748,35.669171],[139.767113,35.669486]]}},{"type":"Feature","properties":{"osm_type":"way","osm_id":1419992137,"class":"secondary","name":"錦町有楽町線","bridge":"no","tunnel":"no","layer":"0","part":0},"geometry":{"type":"LineString","coordinates":[[139.762131,35.674019],[139.762111,35.674161],[139.762255,35.674601]]}},{"type":"Feature","properties":{"osm_type":"way","osm_id":1419992138,"class":"secondary","name":"錦町有楽町線","bridge":"no","tunnel":"no","layer":"0","part":0},"geometry":{"type":"LineString","coordinates":[[139.762358,35.674706],[139.762401,35.674573],[139.762251,35.674127],[139.762131,35.674019]]}},{"type":"Feature","properties":{"osm_type":"way","osm_id":1419992139,"class":"secondary","name":"大名小路","bridge":"no","tunnel":"no","layer":"0","part":0},"geometry":{"type":"LineString","coordinates":[[139.762358,35.674706],[139.762607,35.6755]]}},{"type":"Feature","properties":{"osm_type":"way","osm_id":1419992140,"class":"secondary","name":"錦町有楽町線","bridge":"no","tunnel":"no","layer":"0","part":0},"geometry":{"type":"LineString","coordinates":[[139.762255,35.674601],[139.762358,35.674706]]}},{"type":"Feature","properties":{"osm_type":"way","osm_id":1419992142,"class":"secondary","name":"大名小路","bridge":"no","tunnel":"no","layer":"0","part":0},"geometry":{"type":"LineString","coordinates":[[139.762131,35.674019],[139.762072,35.673831],[139.762011,35.673713],[139.761949,35.673619],[139.761835,35.673503]]}}]}
