{"type":"FeatureCollection","name":"Historic waterways: reference lines","bbox":[139.759,35.666073,139.771503,35.6755],"features":[{"type":"Feature","properties":{"id":"sanjikkenbori-reference","part":0,"name":"三十間堀川（参考線）","reference_only":true,"geometry_status":"hand_traced_approximation","depth_status":"not_provided"},"geometry":{"type":"LineString","coordinates":[[139.771503,35.674227],[139.7705,35.6735],[139.7684,35.671],[139.7663,35.6685],[139.7645,35.6662]]}},{"type":"Feature","properties":{"id":"shiodome-reference","part":0,"name":"汐留川（参考線）","reference_only":true,"geometry_status":"hand_traced_approximation","depth_status":"not_provided"},"geometry":{"type":"LineString","coordinates":[[139.759,35.668144],[139.75903,35.668124],[139.762024,35.667144],[139.76291,35.666073],[139.7645,35.6662]]}},{"type":"Feature","properties":{"id":"kyobashi-reference","part":0,"name":"京橋川（参考線）","reference_only":true,"geometry_status":"hand_traced_approximation","depth_status":"not_provided"},"geometry":{"type":"LineString","coordinates":[[139.767486,35.6755],[139.769401,35.675004],[139.771503,35.674227]]}},{"type":"Feature","properties":{"id":"outer-moat-reference","part":0,"name":"外濠（参考線）","reference_only":true,"geometry_status":"hand_traced_approximation","depth_status":"not_provided"},"geometry":{"type":"LineString","coordinates":[[139.75903,35.668124],[139.760612,35.672145],[139.761126,35.672499],[139.764029,35.673305],[139.765458,35.6755]]}}]}
