{"type":"FeatureCollection","name":"Ginza railways","bbox":[139.759,35.6645,139.772,35.6755],"features":[{"type":"Feature","properties":{"osm_type":"way","osm_id":173809223,"part":0,"railway":"rail","name":"JR京葉線","tunnel":"yes","bridge":"no","layer":"-3","depth_status":"not_provided"},"geometry":{"type":"LineString","coordinates":[[139.772,35.675268],[139.771444,35.6755]]}},{"type":"Feature","properties":{"osm_type":"way","osm_id":189981641,"part":0,"railway":"light_rail","name":"ゆりかもめ","tunnel":"no","bridge":"viaduct","layer":"3","depth_status":"not_provided"},"geometry":{"type":"LineString","coordinates":[[139.761138,35.6645],[139.761098,35.664587],[139.76045,35.664992]]}},{"type":"Feature","properties":{"osm_type":"way","osm_id":203293498,"part":0,"railway":"rail","name":"京浜東北線","tunnel":"no","bridge":"yes","layer":"1","depth_status":"not_provided"},"geometry":{"type":"LineString","coordinates":[[139.760032,35.672101],[139.760134,35.672269]]}},{"type":"Feature","properties":{"osm_type":"way","osm_id":203293509,"part":0,"railway":"rail","name":"京浜東北線","tunnel":"no","bridge":"no","layer":"1","depth_status":"not_provided"},"geometry":{"type":"LineString","coordinates":[[139.759,35.670272],[139.760032,35.672101]]}},{"type":"Feature","properties":{"osm_type":"way","osm_id":203293515,"part":0,"railway":"rail","name":"京浜東北線","tunnel":"no","bridge":"viaduct","layer":"1","depth_status":"not_provided"},"geometry":{"type":"LineString","coordinates":[[139.760134,35.672269],[139.760717,35.673089],[139.761248,35.67363]]}},{"type":"Feature","properties":{"osm_type":"way","osm_id":203293533,"part":0,"railway":"rail","name":"東海道本線","tunnel":"no","bridge":"yes","layer":"1","depth_status":"not_provided"},"geometry":{"type":"LineString","coordinates":[[139.760205,35.672039],[139.760299,35.672213]]}},{"type":"Feature","properties":{"osm_type":"way","osm_id":203293535,"part":0,"railway":"rail","name":"東海道本線","tunnel":"no","bridge":"viaduct","layer":"1","depth_status":"not_provided"},"geometry":{"type":"LineString","coordinates":[[139.760299,35.672213],[139.760813,35.67293],[139.7614,35.673539]]}},{"type":"Feature","properties":{"osm_type":"way","osm_id":203293537,"part":0,"railway":"rail","name":"東海道本線","tunnel":"no","bridge":"no","layer":"1","depth_status":"not_provided"},"geometry":{"type":"LineString","coordinates":[[139.759,35.66991],[139.760205,35.672039]]}},{"type":"Feature","properties":{"osm_type":"way","osm_id":203293540,"part":0,"railway":"rail","name":"山手線","tunnel":"no","bridge":"yes","layer":"1","depth_status":"not_provided"},"geometry":{"type":"LineString","coordinates":[[139.760213,35.672242],[139.760111,35.672072]]}},{"type":"Feature","properties":{"osm_type":"way","osm_id":203293547,"part":0,"railway":"rail","name":"山手線","tunnel":"no","bridge":"no","layer":"1","depth_status":"not_provided"},"geometry":{"type":"LineString","coordinates":[[139.760111,35.672072],[139.759,35.670106]]}},{"type":"Feature","properties":{"osm_type":"way","osm_id":203293571,"part":0,"railway":"rail","name":"京浜東北線","tunnel":"no","bridge":"yes","layer":"1","depth_status":"not_provided"},"geometry":{"type":"LineString","coordinates":[[139.760247,35.672231],[139.760149,35.672059]]}},{"type":"Feature","properties":{"osm_type":"way","osm_id":203293577,"part":0,"railway":"rail","name":"京浜東北線","tunnel":"no","bridge":"no","layer":"1","depth_status":"not_provided"},"geometry":{"type":"LineString","coordinates":[[139.760149,35.672059],[139.759,35.67002]]}},{"type":"Feature","properties":{"osm_type":"way","osm_id":203293581,"part":0,"railway":"rail","name":"東海道新幹線","tunnel":"no","bridge":"viaduct","layer":"1","depth_status":"not_provided"},"geometry":{"type":"LineString","coordinates":[[139.761524,35.673463],[139.760984,35.672946],[139.760437,35.672167]]}},{"type":"Feature","properties":{"osm_type":"way","osm_id":203293582,"part":0,"railway":"rail","name":"東海道新幹線","tunnel":"no","bridge":"yes","layer":"2","depth_status":"not_provided"},"geometry":{"type":"LineString","coordinates":[[139.760437,35.672167],[139.760333,35.671983]]}},{"type":"Feature","properties":{"osm_type":"way","osm_id":203293584,"part":0,"railway":"rail","name":"東海道新幹線","tunnel":"no","bridge":"no","layer":"1","depth_status":"not_provided"},"geometry":{"type":"LineString","coordinates":[[139.760333,35.671983],[139.759,35.669635]]}},{"type":"Feature","properties":{"osm_type":"way","osm_id":203293591,"part":0,"railway":"rail","name":"東海道本線","tunnel":"no","bridge":"yes","layer":"1","depth_status":"not_provided"},"geometry":{"type":"LineString","coordinates":[[139.760348,35.672197],[139.760248,35.672024]]}},{"type":"Feature","properties":{"osm_type":"way","osm_id":203293593,"part":0,"railway":"rail","name":"東海道本線","tunnel":"no","bridge":"no","layer":"1","depth_status":"not_provided"},"geometry":{"type":"LineString","coordinates":[[139.760248,35.672024],[139.759,35.669823]]}},{"type":"Feature","properties":{"osm_type":"way","osm_id":203293594,"part":0,"railway":"rail","name":"山手線","tunnel":"no","bridge":"yes","layer":"1","depth_status":"not_provided"},"geometry":{"type":"LineString","coordinates":[[139.760073,35.672086],[139.760172,35.672256]]}},{"type":"Feature","properties":{"osm_type":"way","osm_id":203293596,"part":0,"railway":"rail","name":"山手線","tunnel":"no","bridge":"viaduct","layer":"1","depth_status":"not_provided"},"geometry":{"type":"LineString","coordinates":[[139.760172,35.672256],[139.760694,35.672998],[139.761287,35.673606]]}},{"type":"Feature","properties":{"osm_type":"way","osm_id":203293597,"part":0,"railway":"rail","name":"山手線","tunnel":"no","bridge":"no","layer":"1","depth_status":"not_provided"},"geometry":{"type":"LineString","coordinates":[[139.759,35.670184],[139.760073,35.672086]]}},{"type":"Feature","properties":{"osm_type":"way","osm_id":203293598,"part":0,"railway":"rail","name":"東海道新幹線","tunnel":"no","bridge":"viaduct","layer":"1","depth_status":"not_provided"},"geometry":{"type":"LineString","coordinates":[[139.760399,35.67218],[139.760662,35.672604],[139.760997,35.673023],[139.761488,35.673487]]}},{"type":"Feature","properties":{"osm_type":"way","osm_id":203293601,"part":0,"railway":"rail","name":"東海道新幹線","tunnel":"no","bridge":"yes","layer":"2","depth_status":"not_provided"},"geometry":{"type":"LineString","coordinates":[[139.760295,35.672007],[139.760399,35.67218]]}},{"type":"Feature","properties":{"osm_type":"way","osm_id":203293604,"part":0,"railway":"rail","name":"東海道新幹線","tunnel":"no","bridge":"no","layer":"1","depth_status":"not_provided"},"geometry":{"type":"LineString","coordinates":[[139.759,35.669725],[139.760295,35.672007]]}},{"type":"Feature","properties":{"osm_type":"way","osm_id":203301398,"part":0,"railway":"rail","name":"京浜東北線","tunnel":"no","bridge":"yes","layer":"1","depth_status":"not_provided"},"geometry":{"type":"LineString","coordinates":[[139.761248,35.67363],[139.761485,35.673825]]}},{"type":"Feature","properties":{"osm_type":"way","osm_id":203301403,"part":0,"railway":"rail","name":"京浜東北線","tunnel":"no","bridge":"viaduct","layer":"2","depth_status":"not_provided"},"geometry":{"type":"LineString","coordinates":[[139.762411,35.67462],[139.763103,35.675189],[139.763604,35.6755]]}},{"type":"Feature","properties":{"osm_type":"way","osm_id":203301407,"part":0,"railway":"rail","name":"東海道本線","tunnel":"no","bridge":"yes","layer":"1","depth_status":"not_provided"},"geometry":{"type":"LineString","coordinates":[[139.763924,35.675419],[139.764018,35.6755]]}},{"type":"Feature","properties":{"osm_type":"way","osm_id":203301411,"part":0,"railway":"rail","name":"東海道本線","tunnel":"no","bridge":"viaduct","layer":"2","depth_status":"not_provided"},"geometry":{"type":"LineString","coordinates":[[139.76234,35.674256],[139.763484,35.67505],[139.763924,35.675419]]}},{"type":"Feature","properties":{"osm_type":"way","osm_id":203301412,"part":0,"railway":"rail","name":"東海道本線","tunnel":"no","bridge":"yes","layer":"1","depth_status":"not_provided"},"geometry":{"type":"LineString","coordinates":[[139.7614,35.673539],[139.761674,35.673764]]}},{"type":"Feature","properties":{"osm_type":"way","osm_id":203301414,"part":0,"railway":"rail","name":"山手線","tunnel":"no","bridge":"viaduct","layer":"1","depth_status":"not_provided"},"geometry":{"type":"LineString","coordinates":[[139.761323,35.673585],[139.76073,35.67298],[139.760213,35.672242]]}},{"type":"Feature","properties":{"osm_type":"way","osm_id":203301415,"part":0,"railway":"rail","name":"山手線","tunnel":"no","bridge":"yes","layer":"1","depth_status":"not_provided"},"geometry":{"type":"LineString","coordinates":[[139.763781,35.6755],[139.76374,35.675468]]}},{"type":"Feature","properties":{"osm_type":"way","osm_id":203301417,"part":0,"railway":"rail","name":"山手線","tunnel":"no","bridge":"viaduct","layer":"2","depth_status":"not_provided"},"geometry":{"type":"LineString","coordinates":[[139.76374,35.675468],[139.762487,35.674506]]}},{"type":"Feature","properties":{"osm_type":"way","osm_id":203301418,"part":0,"railway":"rail","name":"山手線","tunnel":"no","bridge":"yes","layer":"1","depth_status":"not_provided"},"geometry":{"type":"LineString","coordinates":[[139.762487,35.674506],[139.762019,35.674145]]}},{"type":"Feature","properties":{"osm_type":"way","osm_id":203301420,"part":0,"railway":"rail","name":"京浜東北線","tunnel":"no","bridge":"viaduct","layer":"1","depth_status":"not_provided"},"geometry":{"type":"LineString","coordinates":[[139.761355,35.673566],[139.760768,35.672963],[139.760247,35.672231]]}},{"type":"Feature","properties":{"osm_type":"way","osm_id":203301421,"part":0,"railway":"rail","name":"京浜東北線","tunnel":"no","bridge":"yes","layer":"1","depth_status":"not_provided"},"geometry":{"type":"LineString","coordinates":[[139.763961,35.6755],[139.763886,35.67543]]}},{"type":"Feature","properties":{"osm_type":"way","osm_id":203301423,"part":0,"railway":"rail","name":"京浜東北線","tunnel":"no","bridge":"viaduct","layer":"2","depth_status":"not_provided"},"geometry":{"type":"LineString","coordinates":[[139.763886,35.67543],[139.763449,35.675066],[139.762392,35.674344]]}},{"type":"Feature","properties":{"osm_type":"way","osm_id":203301424,"part":0,"railway":"rail","name":"京浜東北線","tunnel":"no","bridge":"yes","layer":"1","depth_status":"not_provided"},"geometry":{"type":"LineString","coordinates":[[139.762392,35.674344],[139.76201,35.674085]]}},{"type":"Feature","properties":{"osm_type":"way","osm_id":203301426,"part":0,"railway":"rail","name":"東海道新幹線","tunnel":"no","bridge":"yes","layer":"2","depth_status":"not_provided"},"geometry":{"type":"LineString","coordinates":[[139.764212,35.6755],[139.764071,35.675374]]}},{"type":"Feature","properties":{"osm_type":"way","osm_id":203301427,"part":0,"railway":"rail","name":"東海道新幹線","tunnel":"no","bridge":"viaduct","layer":"2","depth_status":"not_provided"},"geometry":{"type":"LineString","coordinates":[[139.764071,35.675374],[139.763683,35.675041],[139.76236,35.674112]]}},{"type":"Feature","properties":{"osm_type":"way","osm_id":203301428,"part":0,"railway":"rail","name":"東海道新幹線","tunnel":"no","bridge":"viaduct","layer":"1","depth_status":"not_provided"},"geometry":{"type":"LineString","coordinates":[[139.762,35.673848],[139.761524,35.673463]]}},{"type":"Feature","properties":{"osm_type":"way","osm_id":203301430,"part":0,"railway":"rail","name":"東海道本線","tunnel":"no","bridge":"yes","layer":"1","depth_status":"not_provided"},"geometry":{"type":"LineString","coordinates":[[139.76408,35.6755],[139.763971,35.675405]]}},{"type":"Feature","properties":{"osm_type":"way","osm_id":203301432,"part":0,"railway":"rail","name":"東海道本線","tunnel":"no","bridge":"yes","layer":"1","depth_status":"not_provided"},"geometry":{"type":"LineString","coordinates":[[139.762376,35.674233],[139.761959,35.673938]]}},{"type":"Feature","properties":{"osm_type":"way","osm_id":203301433,"part":0,"railway":"rail","name":"東海道本線","tunnel":"no","bridge":"viaduct","layer":"2","depth_status":"not_provided"},"geometry":{"type":"LineString","coordinates":[[139.763971,35.675405],[139.763512,35.675027],[139.762376,35.674233]]}},{"type":"Feature","properties":{"osm_type":"way","osm_id":203301435,"part":0,"railway":"rail","name":"東海道本線","tunnel":"no","bridge":"viaduct","layer":"1","depth_status":"not_provided"},"geometry":{"type":"LineString","coordinates":[[139.76144,35.673516],[139.76083,35.672893],[139.760348,35.672197]]}},{"type":"Feature","properties":{"osm_type":"way","osm_id":203301437,"part":0,"railway":"rail","name":"山手線","tunnel":"no","bridge":"yes","layer":"1","depth_status":"not_provided"},"geometry":{"type":"LineString","coordinates":[[139.763708,35.675487],[139.763725,35.6755]]}},{"type":"Feature","properties":{"osm_type":"way","osm_id":203301439,"part":0,"railway":"rail","name":"山手線","tunnel":"no","bridge":"viaduct","layer":"2","depth_status":"not_provided"},"geometry":{"type":"LineString","coordinates":[[139.762472,35.674528],[139.763708,35.675487]]}},{"type":"Feature","properties":{"osm_type":"way","osm_id":203301440,"part":0,"railway":"rail","name":"山手線","tunnel":"no","bridge":"yes","layer":"1","depth_status":"not_provided"},"geometry":{"type":"LineString","coordinates":[[139.761287,35.673606],[139.761519,35.673802]]}},{"type":"Feature","properties":{"osm_type":"way","osm_id":203301449,"part":0,"railway":"rail","name":"東海道新幹線","tunnel":"no","bridge":"yes","layer":"2","depth_status":"not_provided"},"geometry":{"type":"LineString","coordinates":[[139.764024,35.675388],[139.76415,35.6755]]}},{"type":"Feature","properties":{"osm_type":"way","osm_id":203301451,"part":0,"railway":"rail","name":"東海道新幹線","tunnel":"no","bridge":"viaduct","layer":"2","depth_status":"not_provided"},"geometry":{"type":"LineString","coordinates":[[139.762316,35.674135],[139.763295,35.674796],[139.764024,35.675388]]}},{"type":"Feature","properties":{"osm_type":"way","osm_id":203301453,"part":0,"railway":"rail","name":"東海道新幹線","tunnel":"no","bridge":"viaduct","layer":"1","depth_status":"not_provided"},"geometry":{"type":"LineString","coordinates":[[139.761488,35.673487],[139.761973,35.673878]]}},{"type":"Feature","properties":{"osm_type":"way","osm_id":210358354,"part":0,"railway":"rail","name":"東海道本線（横須賀線）","tunnel":"yes","bridge":"no","layer":"-5","depth_status":"not_provided"},"geometry":{"type":"LineString","coordinates":[[139.759,35.669072],[139.759591,35.669986],[139.760704,35.672199],[139.761608,35.673276],[139.761932,35.673775],[139.762432,35.675038],[139.762584,35.6755]]}},{"type":"Feature","properties":{"osm_type":"way","osm_id":211240826,"part":0,"railway":"rail","name":"山手線","tunnel":"no","bridge":"yes","layer":"1","depth_status":"not_provided"},"geometry":{"type":"LineString","coordinates":[[139.761555,35.67378],[139.761323,35.673585]]}},{"type":"Feature","properties":{"osm_type":"way","osm_id":211240828,"part":0,"railway":"rail","name":"山手線","tunnel":"no","bridge":"viaduct","layer":"1","depth_status":"not_provided"},"geometry":{"type":"LineString","coordinates":[[139.761519,35.673802],[139.762061,35.674218]]}},{"type":"Feature","properties":{"osm_type":"way","osm_id":211240837,"part":0,"railway":"rail","name":"京浜東北線","tunnel":"no","bridge":"yes","layer":"1","depth_status":"not_provided"},"geometry":{"type":"LineString","coordinates":[[139.762054,35.674322],[139.762411,35.67462]]}},{"type":"Feature","properties":{"osm_type":"way","osm_id":211240853,"part":0,"railway":"rail","name":"山手線","tunnel":"no","bridge":"viaduct","layer":"1","depth_status":"not_provided"},"geometry":{"type":"LineString","coordinates":[[139.762019,35.674145],[139.761555,35.67378]]}},{"type":"Feature","properties":{"osm_type":"way","osm_id":211240854,"part":0,"railway":"rail","name":"山手線","tunnel":"no","bridge":"yes","layer":"1","depth_status":"not_provided"},"geometry":{"type":"LineString","coordinates":[[139.762061,35.674218],[139.762472,35.674528]]}},{"type":"Feature","properties":{"osm_type":"way","osm_id":211240858,"part":0,"railway":"rail","name":"京浜東北線","tunnel":"no","bridge":"yes","layer":"1","depth_status":"not_provided"},"geometry":{"type":"LineString","coordinates":[[139.761581,35.673752],[139.761355,35.673566]]}},{"type":"Feature","properties":{"osm_type":"way","osm_id":211240864,"part":0,"railway":"rail","name":"京浜東北線","tunnel":"no","bridge":"viaduct","layer":"1","depth_status":"not_provided"},"geometry":{"type":"LineString","coordinates":[[139.761485,35.673825],[139.762054,35.674322]]}},{"type":"Feature","properties":{"osm_type":"way","osm_id":211240870,"part":0,"railway":"rail","name":"京浜東北線","tunnel":"no","bridge":"viaduct","layer":"1","depth_status":"not_provided"},"geometry":{"type":"LineString","coordinates":[[139.76201,35.674085],[139.761581,35.673752]]}},{"type":"Feature","properties":{"osm_type":"way","osm_id":211381256,"part":0,"railway":"rail","name":"東海道新幹線","tunnel":"no","bridge":"yes","layer":"1","depth_status":"not_provided"},"geometry":{"type":"LineString","coordinates":[[139.76236,35.674112],[139.762,35.673848]]}},{"type":"Feature","properties":{"osm_type":"way","osm_id":211381336,"part":0,"railway":"rail","name":"東海道本線","tunnel":"no","bridge":"yes","layer":"1","depth_status":"not_provided"},"geometry":{"type":"LineString","coordinates":[[139.762025,35.67403],[139.76234,35.674256]]}},{"type":"Feature","properties":{"osm_type":"way","osm_id":211381344,"part":0,"railway":"rail","name":"東海道本線","tunnel":"no","bridge":"yes","layer":"1","depth_status":"not_provided"},"geometry":{"type":"LineString","coordinates":[[139.761716,35.673743],[139.76144,35.673516]]}},{"type":"Feature","properties":{"osm_type":"way","osm_id":211381359,"part":0,"railway":"rail","name":"東海道本線","tunnel":"no","bridge":"viaduct","layer":"1","depth_status":"not_provided"},"geometry":{"type":"LineString","coordinates":[[139.761674,35.673764],[139.762025,35.67403]]}},{"type":"Feature","properties":{"osm_type":"way","osm_id":211381394,"part":0,"railway":"rail","name":"東海道新幹線","tunnel":"no","bridge":"yes","layer":"1","depth_status":"not_provided"},"geometry":{"type":"LineString","coordinates":[[139.761973,35.673878],[139.762316,35.674135]]}},{"type":"Feature","properties":{"osm_type":"way","osm_id":211381421,"part":0,"railway":"rail","name":"東海道本線","tunnel":"no","bridge":"viaduct","layer":"1","depth_status":"not_provided"},"geometry":{"type":"LineString","coordinates":[[139.761959,35.673938],[139.761716,35.673743]]}},{"type":"Feature","properties":{"osm_type":"way","osm_id":275929296,"part":0,"railway":"light_rail","name":"ゆりかもめ","tunnel":"no","bridge":"viaduct","layer":"3","depth_status":"not_provided"},"geometry":{"type":"LineString","coordinates":[[139.759889,35.66542],[139.760144,35.665271]]}},{"type":"Feature","properties":{"osm_type":"way","osm_id":275944705,"part":0,"railway":"light_rail","name":"ゆりかもめ","tunnel":"no","bridge":"viaduct","layer":"3","depth_status":"not_provided"},"geometry":{"type":"LineString","coordinates":[[139.760144,35.665271],[139.761098,35.664685],[139.761198,35.664552],[139.761206,35.6645]]}},{"type":"Feature","properties":{"osm_type":"way","osm_id":275944712,"part":0,"railway":"light_rail","name":"ゆりかもめ","tunnel":"no","bridge":"viaduct","layer":"3","depth_status":"not_provided"},"geometry":{"type":"LineString","coordinates":[[139.76045,35.664992],[139.759784,35.66531]]}},{"type":"Feature","properties":{"osm_type":"way","osm_id":661299593,"part":0,"railway":"subway","name":"都営地下鉄三田線","tunnel":"yes","bridge":"no","layer":"-2","depth_status":"not_provided"},"geometry":{"type":"LineString","coordinates":[[139.759821,35.6755],[139.759567,35.675144],[139.759,35.674553]]}},{"type":"Feature","properties":{"osm_type":"way","osm_id":661492584,"part":0,"railway":"subway","name":"東京メトロ日比谷線","tunnel":"yes","bridge":"no","layer":"-3","depth_status":"not_provided"},"geometry":{"type":"LineString","coordinates":[[139.759652,35.674878],[139.759022,35.675227],[139.759,35.675236]]}},{"type":"Feature","properties":{"osm_type":"way","osm_id":661492594,"part":0,"railway":"subway","name":"東京メトロ日比谷線","tunnel":"yes","bridge":"no","layer":"-3","depth_status":"not_provided"},"geometry":{"type":"LineString","coordinates":[[139.772,35.667443],[139.77163,35.667123],[139.771097,35.666899],[139.770719,35.666857],[139.770314,35.666907],[139.769968,35.667035],[139.769491,35.667392],[139.765913,35.670536],[139.763131,35.672556],[139.760882,35.674011],[139.759652,35.674878]]}},{"type":"Feature","properties":{"osm_type":"way","osm_id":661575503,"part":0,"railway":"subway","name":"東京メトロ千代田線","tunnel":"yes","bridge":"no","layer":"-2","depth_status":"not_provided"},"geometry":{"type":"LineString","coordinates":[[139.759324,35.674786],[139.759856,35.675393],[139.759926,35.6755]]}},{"type":"Feature","properties":{"osm_type":"way","osm_id":661575505,"part":0,"railway":"subway","name":"東京メトロ千代田線","tunnel":"yes","bridge":"no","layer":"-2","depth_status":"not_provided"},"geometry":{"type":"LineString","coordinates":[[139.759411,35.674736],[139.759021,35.674284],[139.759,35.674264]]}},{"type":"Feature","properties":{"osm_type":"way","osm_id":661575507,"part":0,"railway":"subway","name":"東京メトロ千代田線","tunnel":"yes","bridge":"no","layer":"-2","depth_status":"not_provided"},"geometry":{"type":"LineString","coordinates":[[139.759,35.674454],[139.759324,35.674786]]}},{"type":"Feature","properties":{"osm_type":"way","osm_id":661879404,"part":0,"railway":"subway","name":"東京メトロ日比谷線","tunnel":"yes","bridge":"no","layer":"-3","depth_status":"not_provided"},"geometry":{"type":"LineString","coordinates":[[139.759,35.675282],[139.759038,35.675266],[139.759686,35.674906]]}},{"type":"Feature","properties":{"osm_type":"way","osm_id":662063661,"part":0,"railway":"subway","name":"東京メトロ丸ノ内線","tunnel":"yes","bridge":"no","layer":"-3","depth_status":"not_provided"},"geometry":{"type":"LineString","coordinates":[[139.762485,35.67269],[139.761828,35.672584],[139.760552,35.67227],[139.760198,35.672242],[139.759776,35.672276],[139.759,35.672545]]}},{"type":"Feature","properties":{"osm_type":"way","osm_id":662063663,"part":0,"railway":"subway","name":"東京メトロ丸ノ内線","tunnel":"yes","bridge":"no","layer":"-3","depth_status":"not_provided"},"geometry":{"type":"LineString","coordinates":[[139.759,35.672581],[139.759453,35.672407],[139.759957,35.672291],[139.760735,35.672334],[139.762459,35.672769]]}},{"type":"Feature","properties":{"osm_type":"way","osm_id":665185331,"part":0,"railway":"subway","name":"東京メトロ有楽町線","tunnel":"yes","bridge":"no","layer":"-3","depth_status":"not_provided"},"geometry":{"type":"LineString","coordinates":[[139.764344,35.6755],[139.765623,35.675188],[139.766211,35.674953],[139.770649,35.671919],[139.771181,35.67159],[139.771757,35.671325],[139.772,35.671226]]}},{"type":"Feature","properties":{"osm_type":"way","osm_id":665187938,"part":0,"railway":"subway","name":"東京メトロ有楽町線","tunnel":"yes","bridge":"no","layer":"-3","depth_status":"not_provided"},"geometry":{"type":"LineString","coordinates":[[139.772,35.671197],[139.771513,35.671391],[139.770904,35.671709],[139.76603,35.674987],[139.765564,35.675162],[139.764025,35.6755]]}},{"type":"Feature","properties":{"osm_type":"way","osm_id":665655230,"part":0,"railway":"subway","name":"東京メトロ銀座線","tunnel":"yes","bridge":"no","layer":"-2","depth_status":"not_provided"},"geometry":{"type":"LineString","coordinates":[[139.761683,35.667987],[139.76104,35.667226],[139.760773,35.667031],[139.760497,35.666909],[139.760121,35.666852],[139.759757,35.666872],[139.75932,35.666992]]}},{"type":"Feature","properties":{"osm_type":"way","osm_id":665693588,"part":0,"railway":"subway","name":"都営地下鉄浅草線","tunnel":"yes","bridge":"no","layer":"-2","depth_status":"not_provided"},"geometry":{"type":"LineString","coordinates":[[139.759849,35.666],[139.76007,35.666219],[139.76039,35.666415],[139.760884,35.666589],[139.76127,35.666642],[139.762877,35.666713],[139.76341,35.666838],[139.763732,35.666973],[139.76411,35.667205],[139.764793,35.667745],[139.765495,35.668473],[139.766861,35.66958],[139.768638,35.671516],[139.769459,35.672301],[139.770263,35.673189],[139.771113,35.67424],[139.771887,35.6755]]}},{"type":"Feature","properties":{"osm_type":"way","osm_id":666706632,"part":0,"railway":"subway","name":"東京メトロ銀座線","tunnel":"yes","bridge":"no","layer":"-2","depth_status":"not_provided"},"geometry":{"type":"LineString","coordinates":[[139.761651,35.668018],[139.765475,35.671706],[139.768329,35.674359],[139.769189,35.6755]]}},{"type":"Feature","properties":{"osm_type":"way","osm_id":666915681,"part":0,"railway":"subway","name":"都営地下鉄浅草線","tunnel":"yes","bridge":"no","layer":"-2","depth_status":"not_provided"},"geometry":{"type":"LineString","coordinates":[[139.771933,35.6755],[139.771142,35.674216],[139.76882,35.671409],[139.767576,35.669992],[139.766646,35.669064],[139.765765,35.668296],[139.764852,35.667714],[139.764137,35.667174],[139.763587,35.66686],[139.762879,35.666672],[139.760905,35.666554],[139.760549,35.666441],[139.760234,35.666273],[139.759873,35.665957]]}},{"type":"Feature","properties":{"osm_type":"way","osm_id":668298379,"part":0,"railway":"rail","name":"JR京葉線","tunnel":"yes","bridge":"no","layer":"-3","depth_status":"not_provided"},"geometry":{"type":"LineString","coordinates":[[139.771569,35.6755],[139.772,35.675321]]}},{"type":"Feature","properties":{"osm_type":"way","osm_id":669739095,"part":0,"railway":"subway","name":"東京メトロ丸ノ内線","tunnel":"yes","bridge":"no","layer":"-2","depth_status":"not_provided"},"geometry":{"type":"LineString","coordinates":[[139.764946,35.6755],[139.765051,35.675199],[139.765103,35.674829],[139.765066,35.674498],[139.764683,35.673659],[139.76447,35.673382],[139.764195,35.673147],[139.763815,35.672931],[139.763469,35.672838],[139.762485,35.67269]]}},{"type":"Feature","properties":{"osm_type":"way","osm_id":669740239,"part":0,"railway":"subway","name":"東京メトロ丸ノ内線","tunnel":"yes","bridge":"no","layer":"-2","depth_status":"not_provided"},"geometry":{"type":"LineString","coordinates":[[139.762459,35.672769],[139.763759,35.673043]]}},{"type":"Feature","properties":{"osm_type":"way","osm_id":669740872,"part":0,"railway":"subway","name":"東京メトロ日比谷線","tunnel":"yes","bridge":"no","layer":"-3","depth_status":"not_provided"},"geometry":{"type":"LineString","coordinates":[[139.759686,35.674906],[139.76092,35.674036],[139.763222,35.672625],[139.76434,35.671815],[139.766989,35.669751],[139.769784,35.667194],[139.770006,35.667062],[139.770341,35.666944],[139.770727,35.666898],[139.771095,35.666945],[139.771606,35.667157],[139.772,35.6675]]}},{"type":"Feature","properties":{"osm_type":"way","osm_id":669744831,"part":0,"railway":"subway","name":"東京メトロ銀座線","tunnel":"yes","bridge":"no","layer":"-2","depth_status":"not_provided"},"geometry":{"type":"LineString","coordinates":[[139.769263,35.6755],[139.768361,35.674341],[139.761683,35.667987]]}},{"type":"Feature","properties":{"osm_type":"way","osm_id":678481167,"part":0,"railway":"subway","name":"都営地下鉄三田線","tunnel":"yes","bridge":"no","layer":"-2","depth_status":"not_provided"},"geometry":{"type":"LineString","coordinates":[[139.759,35.674604],[139.759589,35.675269],[139.759733,35.6755]]}},{"type":"Feature","properties":{"osm_type":"way","osm_id":687090948,"part":0,"railway":"subway","name":"都営地下鉄大江戸線","tunnel":"yes","bridge":"no","layer":"-4","depth_status":"not_provided"},"geometry":{"type":"LineString","coordinates":[[139.767282,35.6645],[139.76632,35.665245],[139.764647,35.666696],[139.764484,35.66679],[139.764141,35.666891],[139.763587,35.666889],[139.763241,35.66676],[139.762966,35.666558],[139.761763,35.664779],[139.761508,35.6645]]}},{"type":"Feature","properties":{"osm_type":"way","osm_id":759433007,"part":0,"railway":"rail","name":"東海道本線（横須賀線）","tunnel":"yes","bridge":"no","layer":"-5","depth_status":"not_provided"},"geometry":{"type":"LineString","coordinates":[[139.762629,35.6755],[139.762356,35.674673],[139.761979,35.673761],[139.761661,35.673248],[139.760739,35.672175],[139.759639,35.669964],[139.75915,35.66925],[139.759,35.668922]]}},{"type":"Feature","properties":{"osm_type":"way","osm_id":843583537,"part":0,"railway":"subway","name":"都営地下鉄浅草線","tunnel":"yes","bridge":"no","layer":"-2","depth_status":"not_provided"},"geometry":{"type":"LineString","coordinates":[[139.759873,35.665957],[139.759,35.664906]]}},{"type":"Feature","properties":{"osm_type":"way","osm_id":843583538,"part":0,"railway":"subway","name":"都営地下鉄浅草線","tunnel":"yes","bridge":"no","layer":"-2","depth_status":"not_provided"},"geometry":{"type":"LineString","coordinates":[[139.759,35.664977],[139.759849,35.666]]}},{"type":"Feature","properties":{"osm_type":"way","osm_id":847193641,"part":0,"railway":"subway","name":"東京メトロ千代田線","tunnel":"yes","bridge":"no","layer":"-2","depth_status":"not_provided"},"geometry":{"type":"LineString","coordinates":[[139.760027,35.6755],[139.759985,35.675423],[139.759411,35.674736]]}},{"type":"Feature","properties":{"osm_type":"way","osm_id":856173407,"part":0,"railway":"light_rail","name":"ゆりかもめ","tunnel":"no","bridge":"viaduct","layer":"3","depth_status":"not_provided"},"geometry":{"type":"LineString","coordinates":[[139.759073,35.665877],[139.759889,35.66542]]}},{"type":"Feature","properties":{"osm_type":"way","osm_id":856173408,"part":0,"railway":"light_rail","name":"ゆりかもめ","tunnel":"no","bridge":"viaduct","layer":"3","depth_status":"not_provided"},"geometry":{"type":"LineString","coordinates":[[139.759784,35.66531],[139.759,35.665749]]}},{"type":"Feature","properties":{"osm_type":"way","osm_id":858821673,"part":0,"railway":"subway","name":"都営地下鉄大江戸線","tunnel":"yes","bridge":"no","layer":"-4","depth_status":"not_provided"},"geometry":{"type":"LineString","coordinates":[[139.761464,35.6645],[139.761949,35.665087],[139.762446,35.665877]]}},{"type":"Feature","properties":{"osm_type":"way","osm_id":858821674,"part":0,"railway":"subway","name":"都営地下鉄大江戸線","tunnel":"yes","bridge":"no","layer":"-4","depth_status":"not_provided"},"geometry":{"type":"LineString","coordinates":[[139.762411,35.665891],[139.761916,35.665103],[139.761476,35.664571],[139.761397,35.6645]]}},{"type":"Feature","properties":{"osm_type":"way","osm_id":858821675,"part":0,"railway":"subway","name":"都営地下鉄大江戸線","tunnel":"yes","bridge":"no","layer":"-4","depth_status":"not_provided"},"geometry":{"type":"LineString","coordinates":[[139.761331,35.6645],[139.761881,35.665127],[139.762465,35.666052]]}},{"type":"Feature","properties":{"osm_type":"way","osm_id":858821676,"part":0,"railway":"subway","name":"都営地下鉄大江戸線","tunnel":"yes","bridge":"no","layer":"-4","depth_status":"not_provided"},"geometry":{"type":"LineString","coordinates":[[139.762465,35.666052],[139.762722,35.666453],[139.762951,35.666696],[139.76342,35.666936],[139.763771,35.667001],[139.764145,35.666987],[139.764511,35.666883],[139.764812,35.666699],[139.766395,35.665314],[139.767454,35.6645]]}},{"type":"Feature","properties":{"osm_type":"way","osm_id":1360102104,"part":0,"railway":"subway","name":"東京メトロ丸ノ内線","tunnel":"yes","bridge":"no","layer":"-2","depth_status":"not_provided"},"geometry":{"type":"LineString","coordinates":[[139.763759,35.673043],[139.764158,35.673201],[139.764408,35.673413],[139.764757,35.67396],[139.765007,35.674506],[139.765044,35.674838],[139.764993,35.675183],[139.764889,35.6755]]}},{"type":"Feature","properties":{"osm_type":"way","osm_id":1427490425,"part":0,"railway":"subway","name":"東京メトロ銀座線","tunnel":"yes","bridge":"no","layer":"-2","depth_status":"not_provided"},"geometry":{"type":"LineString","coordinates":[[139.75932,35.666992],[139.759,35.667094]]}},{"type":"Feature","properties":{"osm_type":"way","osm_id":1427490444,"part":0,"railway":"subway","name":"東京メトロ銀座線","tunnel":"yes","bridge":"no","layer":"-2","depth_status":"not_provided"},"geometry":{"type":"LineString","coordinates":[[139.759,35.667193],[139.759355,35.667069]]}},{"type":"Feature","properties":{"osm_type":"way","osm_id":1427490449,"part":0,"railway":"subway","name":"東京メトロ銀座線","tunnel":"yes","bridge":"no","layer":"-2","depth_status":"not_provided"},"geometry":{"type":"LineString","coordinates":[[139.759355,35.667069],[139.759754,35.666926],[139.760098,35.666904],[139.760454,35.666944],[139.760886,35.66717],[139.761651,35.668018]]}}]}
